Company Name,Phone Number,Address,Website,Country
b'10hoch4 Energiesysteme GmbH',b'+43 676 3090780',"b'Gauermanngasse 20f, A-2700 Wr. Neustadt'",b'www.10hoch4.at',b'Austria'
b'1st Level Solar GmbH',b'+43 1 4168517',"b'Drewitzweg 12, 1140 Wien'",b'www.1stlevelsolar.com',b'Austria'
b'Adler Erik',b'+43 664 2341680',"b'Innovative Elektrotechnik, Kaiserweg 15, 6372 Oberndorf in Tirol'",b'www.adler-technik.at',b'Austria'
b'AES Energie Technik GmbH',b'+43 2872 754120',"b'Spitzer Stra\xc3\x9fe 24, 3631 Ottenschlag'",b'www.aes-energietechnik.at',b'Austria'
b'Air Toshiba',b'+43 2266 22260',"b'Schlossweg 1, 2100 Leobendorf'",b'https://www.air-toshiba.at',b'Austria'
b'Allmer GmbH',b'+43 7487 2241',"b'Unterer Markt 18, 3264, Gresten'",b'https://www.air-toshiba.at',b'Austria'
b'Alois & Peter Samhaber GesmbH',b'+43 7276 2768',"b'Untw\xc3\xbcsten 2, A-4722 Peuerbach'",b'www.samhaber-gmbh.at',b'Austria'
b'Alois Perwein GmbH',b'+43 6452 6401',"b'Untere Marktstra\xc3\x9fe 34, 5541 Altenmarkt im Pongau'",b'www.perwein.at',b'Austria'
b'Alpsan Vertriebs GmbH',b'+43 5232 2100160',"b'Messerschmittweg 38, 6175 Kematen in Tyrol'",b'https://www.alpsan.at',b'Austria'
b'Alternativ Installationen GmbH',b'+43 7734 34014',"b'Bergstra\xc3\x9fe 5, 4716 Hofkirchen an der Trattnach'",b'www.a-i.at',b'Austria'
b'Andreas Gretzel Elektro - Photovoltaik',b'+43 664 2378462',"b'95, Lichtenau, 3522'",b'www.photovoltaik-gretzel.at',b'Austria'
b'Andreas Kreiseder GmbH',b'+43 662 480276',"b'Untergrubstr 20, 5161 Elixhausen'",b'www.andreas-kreiseder.at',b'Austria'
b'APEM GmbH',b'+43 3337 33323',"b'Auweg 358, 8250 Vorau'",b'https://www.apem.at',b'Austria'
b'Appel GmbH',b'+43 2841 9001',"b'Titus Appel-Stra\xc3\x9fe 1, 3902 Vitis'",b'appel.at',b'Austria'
b'ARES - Energysystems GmbH',b'+43 699 10201021',"b'Mayerling 42, 2534, Alland'",b'www.ares-energysystems.com',b'Austria'
b'Austria Energy Group',b'+43 1 3363336',"b'Stubenring 18/10, 1010, Vienna'",b'https://www.austriaenergy.com',b'Austria'
b'AustroInstal Srl',b'+43 688 60777111',b'Hauptstrasse 29',b'www.austroinstal.ro',b'Austria'
b'Balmax Solar & Elektrotechnik',b'+43 2683 48980',"b'Industriegel\xc3\xa4nde 1, A-7082, Donnerskirchen'",b'www.balmax.at',b'Austria'
b'Bau & Dach GmbH Spenglerei - Dachdeckerei',b'+43 316 723130',"b'Weinitzenstra\xc3\x9fe 55, 8045, Graz'",b'www.bau-dach.at',b'Austria'
b'Baumgartner Energy GmbH',b'+43 7735 20256',"b'Bernhartsdorf 14, A-4673 Gaspoltshofen'",b'www.baum-energy.at',b'Austria'
b'Bayer GmbH',b'+43 2758 4010',"b'Hauptplatz 18, 3650, P\xc3\xb6ggstall'",b'www.bayer-installationen.com',b'Austria'
b'Bayer Elektrohandel GmbH',b'+43 7586 7281',"b'Vorchdorfer Stra\xc3\x9fe 16, 4643 Pettenbach'",b'https://www.elektrobayer.com',b'Austria'
b'BE-Tech',b'+43 676 3727610',"b'Jubil\xc3\xa4umsstrasse 3, A-2620, Mollram'",b'www.be-tech.at',b'Austria'
b'BF Elektrotechnik Gmbh',b'+43 699 10308291',"b'Rotschitzenstrasse 14, 9073 Klagenfurt'",b'www.bf-elektrotechnik.at',b'Austria'
b'Blaim GmbH',b'+43 2982 3667',"b'Zwettler Stra\xc3\x9fe 22, 3580 Horn'",b'www.solarprofi.at',b'Austria'
b'Blue-Solution GmbH',b'+43 2234 744680',"b'Viktor Adler Strasse 2, 2435 Ebergassing'",b'www.blue-solution.at',b'Austria'
b'Betriebsmontagen Dienstleistungen GmbH',b'+43 7248 61591',"b'Manglburg 15, 4710 Grieskirchen'",b'www.bmd.co.at',b'Austria'
b'BOS GmbH',b'+43 512 583872',"b'Ing. Etzel Strasse, Bogen 56 A, 6020, Innsbruck'",b'www.bos-technology.eu',b'Austria'
b'W\xc3\xa4rme- und Elektrotechnik Wilfried Boxrucker',b'+43 7713 505515',"b'Linden 4, A-4783, Wernstein am Inn'",b'www.boxrucker.at',b'Austria'
b'Bramac Dachsysteme International GmbH',b'+43 2757 40100',"b'Bramacstra\xc3\x9fe 9, A-3380, P\xc3\xb6chlarn'",b'www.bramac.com',b'Austria'
b'BRE Installationen Buchner-Raidel-Enzinger GesmbH',b'+43 6215 82150',"b'Mondseerstra\xc3\x9fe 1, 5204, Stra\xc3\x9fwalchen'",b'https://www.bre.at',b'Austria'
b'Breitsprecher Erneuerbare Energien GmbH',b'+43 699 13322441',"b'Lindengasse 64B, A-2230 G\xc3\xa4nserndorf'",b'www.breitsprecher.at',b'Austria'
b'Br\xc3\xbcder Gros',b'+43 1810 51000',"b'Hohenbergstra\xc3\x9fe 22, 1120, Wien'",b'https://www.bruedergros.at',b'Austria'
b'Dachdeckerei Spenglerei Brugger GmbH',b'+43 4762 81719',"b'An der Sandleiten 10, 9871, Seeboden am Millst\xc3\xa4tter See'",b'www.bruggerdach.at',b'Austria'
b'Brunner Max GmbH',b'+43 5242 64535',"b'Bergwerkstra\xc3\x9fe 4a, 6130 Schwaz'",b'www.haustechnik-brunner.at',b'Austria'
b'BW-Dach',b'+43 699 12980012',"b'Koschatstra\xc3\x9fe 44, 9800, Spittal an der Drau'",b'https://www.bw-dach.at',b'Austria'
b'Carbon Projektentwicklung GmbH',b'+43 2734 32270',"b'Seestra\xc3\x9fe 59, 3550 Langenlois'",b'www.carbon-austria.com',b'Austria'
b'Clean Capital Energy Group GmbH',b'+43 50 2640',"b'Klosterstrasse 2, 4451 Garsten'",b'https://at.cce.solar',b'Austria'
b'CCE \xc3\x96sterreich GmbH',b'+43 50 2640',"b'Klosterstra\xc3\x9fe 2, 4451 Garsten'",b'https://www.cc-energy.com',b'Austria'
b'Clicksolar GmbH',b'+43 463 740488',"b'Siegfried Marcus Stra\xc3\x9fe 5, 9065 Ebenthal in K\xc3\xa4rnten'",b'www.clicksolar.at',b'Austria'
b'Conversio GmbH',b'+43 4769 20834',"b'Hauptstra\xc3\x9fe 39, 9813 M\xc3\xb6llbr\xc3\xbccke'",b'conversioaustria.at',b'Austria'
b'CPG Competitive Power Generation GmbH',b'+43 1 9710971',"b'Lebererckstra\xc3\x9fe 35, 1140, Wien'",b'https://www.cpg-power.at',b'Austria'
b'CrossPower Energy GmbH',b'+43 2236 367633',"b'Hauptstra\xc3\x9fe 14, 2344, Maria Enzersdorf'",b'https://www.cpg-power.at',b'Austria'
b'Dachdeckerei Hans-Peter Felbermayer',b'+43 2236 41548',"b'Hauptstra\xc3\x9fe 120, 2371 Hinterbr\xc3\xbchl'",b'www.hpf-dach.at',b'Austria'
b'DAfi GmbH',b'+43 6458 20160',"b'Niedernfritzerstrasse 120, A-5531 Eben im Pongau'",b'www.dafi.at',b'Austria'
b'De Corti GmbH',b'+43 3465 3147',"b'Dietmannsdorf 28, 8543, St. Martin im Sulmtal'",b'https://www.decorti.at',b'Austria'
b'Die Elektroprofis',b'+43 650 3952865',"b'Brandwiesweg 5, 6383, Erpfendorf'",b'www.elektroprofis.at',b'Austria'
b'DieNeuen Bau & Haustechnik GmbH',b'+43 3179 27755',"b'Wiedenbergstra\xc3\x9fe 37, A-8162 Passail'",b'www.die-neuen.at',b'Austria'
b'Dillinger Installationstechnik',b'+43 2272 63328',"b'Ziegelfeldstra\xc3\x9fe 8, A-3430 Tulln'",b'www.dillinger.co.at',b'Austria'
b'Dino Energie GmbH',b'+43 669 13323333',"b'Schachnerstra\xc3\x9fe 20a, A-1220 Wien'",b'www.dino-energie.at',b'Austria'
b'Dipl. Ing. F. Legerer Installationstechnik GesmbH',b'+43 2282 8538',"b'Bahnstra\xc3\x9fe 9, 2230 G\xc3\xa4nserndorf'",b'www.haustechnik-legerer.at',b'Austria'
b'Dispo-projekts',b'+43 676 5441909',"b'Neustift bei Soo\xc3\x9f 2, 3383 H\xc3\xbcrm'",b'www.sonnenkw.at',b'Austria'
b'Doma Elektro Engineering GmbH',b'+43 7752 81097',"b'Roith 7, 4921, Hohenzell'",b'www.sonnenkw.at',b'Austria'
b'DOMA Solartechnik',b'+43 5524 53530',"b'Sonnenstrasse 1, 6822 Satteins, Vorarlberg'",b'www.domasolar.com',b'Austria'
b'Ing. Hans Drascher GmbH',b'+43 1 7987538',"b'Franzosengraben 11, 1030, Wien'",b'www.drascher.at',b'Austria'
b'E-klar Technologies GmbH',b'+43 7766 4444',"b'Riedfeldstra\xc3\x9fe 5, 4770 Andorf'",b'www.e-klar.com',b'Austria'
b'E-Natura GmbH',b'+43 676 3025582',"b'Ritter-Waldaufstr. 23a,  6112 Wattens'",b'www.e-natura.at',b'Austria'
b'E-Tech Demuth GmbH',b'+43 2142 20030',"b'Heidesiedlung 69, A-2422, Pama'",b'www.e-techdemuth.at',b'Austria'
b'E-Technik Laure GmbH',b'+43 463 511282',"b'Ankershofenstra\xc3\x9fe 2, 9020, Klagenfurt am W\xc3\xb6rthersee'",b'https://www.et-laure.at',b'Austria'
b'E-Werk Gleinst\xc3\xa4tten GmbH',b'+43 3457 40110',"b'A-8443, Gleinst\xc3\xa4tten 5'",b'www.ktg-austria.at',b'Austria'
b'E-Werk Gr\xc3\xb6bming',b'+43 3685 223430',"b'Hauptstra\xc3\x9fe 434, A-8962, Gr\xc3\xb6bming'",b'https://www.das-ewerk.at',b'Austria'
b'E. Kneidinger GmbH & Co. KG',b'+43 7223 85275',"b'Landstra\xc3\x9fe 3b, 4470 Enns'",b'www.elektro-kneidinger.at',b'Austria'
b'E.C.E. Wurmitzer GmbH',b'+43 4276 3663',"b'Pojedl 5, 9562, Himmelberg'",b'www.wurmitzer.at',b'Austria'
b'e.denzel GmbH',b'+43 316 273188',"b'Laubgasse 10, 8055 Graz'",b'www.e-denzel.at',b'Austria'
b'E1 W\xc3\xa4rme und Energie GmbH',b'+43 316 900055000',"b'Mitterstra\xc3\x9fe 180a, 8055 Graz'",b'www.e-eins.at',b'Austria'
b'EAH Elektro-Anlagen-Huber GmbH',b'+43 5442 62750',"b'Urichstra\xc3\x9fe 92, 6500, Landeck'",b'www.e-eins.at',b'Austria'
b'Elektro- Anlagen u. Verteilerbau GmbH',b'+43 7748 32214',"b'Hackenbuch 11-12, 5141 Moosdorf'",b'https://www.eav-gmbh.at',b'Austria'
b'Eco-Tec.at Photovoltaics GmbH',b'+43 3682 243640',"b'Altirdning \xc3\x96blarnerstra\xc3\x9fe 187, A-8952 Irdning'",b'www.eco-tec.at',b'Austria'
b'Ecowatt Erneuerbare Energien GmbH',b'+43 3124 541110',"b'Feldgasse 18, A-8111, Gratwein-Stra\xc3\x9fengel'",b'https://www.ecowatt.at',b'Austria'
b'Elektrotechnik Christoph Peer',b'+43 664 4244338',"b'Klachau 69, 8982 Bad Mitterndorf'",b'https://www.elektro-christophpeer.at',b'Austria'
b'Edirektsolar GmbH',b'+43 5574 23891',"b'Alte Strasse 22, A-6971, Hard'",b'www.edirektsolar.at',b'Austria'
b'EET-Knees GmbH & Co KG',b'+43 4224 23735',"b'G\xc3\xb6rtschitztal Stra\xc3\x9fe 108, 9064, Lassendorf'",b'https://www.eet-knees.at',b'Austria'
b'EGIP GmbH',b'+43 664 88187400',"b'St. Marein 127, A-9431 St. Stefan'",b'www.egip.at',b'Austria'
b'Ehoch2 Energy Engineering',b'+43 676 5342989',"b'Fl\xc3\xb6sserweg 17, 6423 M\xc3\xb6tz'",b'www.ehoch2.co.at',b'Austria'
b'Einsiedler Solartechnik GmbH',b'+43 7242 43284',"b'Katzbacher Str. 10, 4631 Katzbach'",b'www.einsiedler-solar.at',b'Austria'
b'ekt Photovoltaik Elektro und Kommunikationstechnik',b'+43 6244 20500',"b'Georgenberg 437, 5431 Kuchl, \xc3\x96sterreich'",b'www.ekt.at',b'Austria'
b'Elektro Tischner & Klein GmbH',b'+43 4242 550110',"b'Wiesensteig 19, A-9500, Villach'",b'www.etk.at',b'Austria'
b'Elando Elektrotechnik GmbH',b'+43 6582 21003',"b'Kehlbach 61, 5760, Saalfelden am Steinernen Meer'",b'www.etk.at',b'Austria'
b'Electric Maric GmbH',b'+43 316 824294',"b'Sch\xc3\xb6rgelgasse 7, 8010 Graz'",b'www.elektro-marics.at',b'Austria'
b'Electrical Engineering Leitinger Photovoltaik GmbH',b'+43 6583 20901',"b'Hirnreit 182, 5771 Leogang'",b'https://www.photovoltaik-elektrotechnik.at',b'Austria'
b'Electrical Engineering Thomas Ostermann GmbH',b'+43 664 2711117',"b'Marktstrasse 24, 2851, Krumbach'",b'www.thomasostermann.at',b'Austria'
b'Elekrtotechnik Fritz',b'+43 650 2025483',"b'Bundesstra\xc3\x9fe 236, 5505 M\xc3\xbchlbach am Hochk\xc3\xb6nig'",b'https://www.elektrofritz.at',b'Austria'
b'Elektrizit\xc3\xa4tswerk G\xc3\xb6sting V. Franz GmbH',b'+43 316 60770',"b'Viktor-Franz-Stra\xc3\x9fe 13-23, 8051, Graz'",b'www.ewg.at',b'Austria'
b'Elektro - Industrieanlagenbau GesmbH',b'+43 800 400171731',"b'Friedhofstra\xc3\x9fe 28, 4311 Schwertberg'",b'www.elektrofleischer.at',b'Austria'
b'Elektro & Electronic Brunm\xc3\xbcller GmbH',b'+43 7476 773200',"b'Mittlerer, Markt 2, 3361 Aschbach'",b'www.brunmueller.at',b'Austria'
b'Elektro Achorner GmbH',b'+43 5356 63326',"b'Pfarrfeld 2, A-6370 Reith / Kitzb\xc3\xbchel, Tirol'",b'https://www.elektro-achorner.at',b'Austria'
b'Elektro Antretter GmbH',b'+43 5334 6225',"b'Pfarrgasse 2, 6363, Westendorf'",b'elektro-antretter.at',b'Austria'
b'Elektro Auer GmbH',b'+43 1 6039200',"b'Himberger Stra\xc3\x9fe 224, 1100 Wien'",b'www.elektro-auer.com',b'Austria'
b'Elektro Babinsky KG',b'+43 2952 2146',"b'Pfarrgasse 12, 2020 Hollabrunn'",b'www.elektrobabinsky.at',b'Austria'
b'Firma Elektro B\xc3\xb6hm',b'+43 664 4710544',"b'Wagnergasse 6, 2170 Poysdorf'",b'www.elektrobabinsky.at',b'Austria'
b'Elektro Buchinger GmbH',b'+43 7682 6275',"b'Marktstrasse 6, 4870, V\xc3\xb6cklamarkt'",b'expert-buchinger.at',b'Austria'
b'Elektro Buder GmbH',b'+43 7246 801880',"b'Edisonstra\xc3\x9fe 5, 4623 Gunskirchen'",b'www.elektro-buder.at',b'Austria'
b'Elektro Dohr GmbH',b'+43 4352 2293',"b'Bahnhofplatz 5, 9400, Wolfsberg'",b'https://www.elektro-dohr.at',b'Austria'
b'Elektro Dollfu\xc3\x9f GmbH',b'+43 7483 7077',"b'Ringstra\xc3\x9fe 3, A-3281 Oberndorf an der Melk'",b'www.elektrodollfuss.at',b'Austria'
b'Elektro Ebner Gesellschaft m.b.H. & Co. KG.',b'+43 7435 52594',"b'Werkstra\xc3\x9fe 26, 4300, St. Valentin'",b'https://www.elektroebner.at',b'Austria'
b'Elektro Enzi Handelsges m.b.H.',b'+43 4235 2292',"b'Br\xc3\xbcndlweg 2, 9150 Bleiburg'",b'www.elektroenzi.at',b'Austria'
b'Elektro EPP GmbH',b'+43 2642 52017',"b'Ufergasse 2, 2870 Aspang'",b'elektro-epp.at',b'Austria'
b'Elektro ESL Gmbh',b'+43 6474 29120',"b'Reg. Haas Platz 1, 5580 Tamsweg'",b'www.esl-elektro.at',b'Austria'
b'Elektro Feichtner',b'+43 7712 2401',"b'Linzer Stra\xc3\x9fe 72, 4780, Sch\xc3\xa4rding'",b'https://elektro-feichtner.at',b'Austria'
b'Elektro Froschauer Gesellschaft mbH & Co KG',b'+43 7479 7264',"b'Markt 53, 3321, Ardagger'",b'expertfroschauer.at',b'Austria'
b'Elektro Gasser GmbH',b'+43 48 22303',"b'Winklern 112, A-9841, Winklern'",b'www.elektro-gasser.at',b'Austria'
b'Elektro G\xc3\xb6bl-Schachinger GmbH',b'+43 664 4529629',"b'Raimundstra\xc3\x9fe 17, 3250, Wieselburg'",b'et-schachinger.at',b'Austria'
b'Elektro Hackl GmbH',b'+43 4762 42073',"b'Ponauer Str. 28, 9800 Spittal an der Drau'",b'www.elektrohackl.at',b'Austria'
b'Elektro Hainz GmbH',b'+43 5282 2578',"b'Talstra\xc3\x9fe 52, 6284, Ramsau im Zillertal'",b'www.elektro-hainz.at',b'Austria'
b'Elektro Hartlieb GmbH',b'+43 4762 5235',"b'Ladinigstra\xc3\x9fe 1, 9800 Spittal a.d. Drau'",b'www.elektro-hartlieb.at',b'Austria'
b'Elektro Helmut Sunk eU',b'+43 676 4970586',"b'Blumau 6/1, 3204 Kirchberg/Pielach'",b'www.elektro-sunk.at',b'Austria'
b'Elektro Hentschel Gesellschaft m.b.H.',b'+43 3622 716730',"b'Altaussee 49, 8992, Altaussee'",b'www.elektro-sunk.at',b'Austria'
b'Elektro Horvath GesmbH',b'+43 2146 2317',"b'Mittlere Hauptstrasse 39, 2425, Nickelsdorf'",b'www.elektrohorvath.at',b'Austria'
b'Elektro Kammerhofer GmbH',b'+43 3858 61110',"b'Grazer-Stra\xc3\x9fe 66, 8662, St. Barbara im M\xc3\xbcrztal'",b'www.ok-kammerhofer.at',b'Austria'
"b'Kammerhofer & Co. Elektrotechnisches Installationsunternehmen, GmbH'",b'+43 7252 891',"b'Zirerstra\xc3\x9fe 7, 4400 Steyr'",b'www.kammerhofer.at',b'Austria'
b'Elektro Karrer GesmbH',b'+43 7224 4318',"b'Linzer Stra\xc3\x9fe 30, 4490 St. Florian'",b'www.karrernet.at',b'Austria'
b'Elektro Kern GmbH',b'+43 7942 72600',"b'Schlag 84, 4264 Gr\xc3\xbcnbach'",b'www.e-kern.at',b'Austria'
b'Elektro Klocker GMBH',b'+43 5334 30720',"b'Dorfstra\xc3\x9fe 66, 6364, Brixen im Thale'",b'https://www.elektro-klocker.at',b'Austria'
b'Elektro Kogler GesmbH',b'+43 4262 2676',"b'Rudolf Sodek-Str. 15, 9321 Kappel am Krappfeld'",b'www.elektro-kogler.at',b'Austria'
b'Elektro K\xc3\xb6lbel KG',b'+43 7444 7251',"b'Hauslehen 109, 3342, Opponitz'",b'www.elektro-koelbel.at',b'Austria'
b'Elektro Korschan e.U.',b'+43 2622 71017',"b'Hauptplatz 4, 2604, Theresienfeld'",b'www.solar-pv.at',b'Austria'
b'Elektro Kropiunik GesmbH',b'+43 4228 3397',"b'Franzendorf 48, 9072, Ludmannsdorf'",b'www.elektro-kropiunik.at',b'Austria'
b'Elektro Lafer GmbH',b'+43 3472 2142',"b'Grazer Strasse 8, A-8480 Mureck'",b'www.elektro-lafer.at',b'Austria'
b'Elektro Landsch\xc3\xbctzer GmbH & Co KG',b'+43 6477 8389',"b'Davidgasse 291, 5582, St. Michael im Lungau'",b'expert-landschuetzer.at',b'Austria'
b'Elektro Lang GmbH & Co KG',b'+43 3455 804420',"b'Hauptplatz 34a , A-8454, Arnfels'",b'www.elektro-lang.at',b'Austria'
b'Elektro Langeder GmbH & Co KG',b'+43 6468 52900',"b'Markt 58, 5450, Werfen'",b'https://www.elektro-langeder.at',b'Austria'
b'Elektro Leitl GmbH',b'+43 7723 42380',"b'H\xc3\xbctterweg 10, 4950 Altheim'",b'www.elektro-leitl.at',b'Austria'
b'Elektro Lichtenwagner GmbH & Co KG',b'+43 7615 7377',"b'Neu-Scharnstein 50, A-4644, Scharnstein'",b'www.elektro-lichtenwagner.at',b'Austria'
b'Elektro Lipp',b'+43 676 7510771',"b'G\xc3\xb6ttweigerstr 475, 3511 Furth bei G\xc3\xb6ttweig'",b'https://www.elektro-lipp.at',b'Austria'
b'Elektro Andreas Maislinger',b'+43 7748 3041',"b'Willersdorf 15, 5143 Feldkirchen'",b'www.elektro-maislinger.at',b'Austria'
b'Elektro Mayerhofer Ges.m.b.h.',b'+43 2253 7971',"b'Hauptstra\xc3\x9fe 12, 2522 Oberwaltersdorf'",b'https://www.ekm1.at',b'Austria'
b'Elektro Meier Hubert',b'+43 6641 449803',"b'Holzleiten 11, 5112 Lamprechtshausen'",b'www.elektro-meier-hubert.at',b'Austria'
b'Elektro M\xc3\xb6rth GmbH',b'+43 2953 2326',"b'Kammersdorf 105, 2033 Kammersdorf'",b'www.elektro-moerth.at',b'Austria'
b'Energietechnik Nauschnegg GmbH',b'+43 3466 43054',"b'Eibiswald 126, 8552 Eibiswald, Steiermark'",b'www.nauschnegg.at',b'Austria'
b'Elektro Neub\xc3\xb6ck Ges.m.b.H. & Co. KG',b'+43 7719 86100',"b'Dorfgasse 1, 4775, Taufkirchen Pram'",b'www.neuboeck.at',b'Austria'
b'Elektro Neuhuber GmbH',b'+43 7682 4094',"b'Hauptstra\xc3\x9fe 7, A-4872, Neukirchen an der V\xc3\xb6ckla'",b'www.elektro-neuhuber.at',b'Austria'
b'Elektro Neunegger GmbH',b'+43 4762 2314',"b'Gewerbezeile 7, 9800, Spittal an der Drau'",b'www.elektro-neuhuber.at',b'Austria'
b'Elektro Oberreiter GmbH & Co. KG',b'+43 7945 7686',"b'Markt 28, A-4271, St. Oswald bei Freistadt'",b'www.elektro-oberreiter.at',b'Austria'
b'Elektro Ortner GmbH',b'+43 4852 68660',"b'Albin Egger-Str. 26, 9900, Lienz'",b'elektro-ortner.at',b'Austria'
b'Elektro Pointner',b'+43 699 18000097',"b'Aum\xc3\xbchlstra\xc3\x9fe 13, A-4050, Traun'",b'www.elektro-pointner.at',b'Austria'
b'Elektro P\xc3\xbchringer GmbH',b'+43 7269 7575',"b'Eichpichl 5, 4341 Arbing'",b'www.ep-puehringer.at',b'Austria'
b'Elektro Rapold GmbH',b'+43 2674 87373',"b'Weissenbacher Stra\xc3\x9fe 22, 2564, Weissenbach an der Triesting'",b'https://www.elektro-rapold.at',b'Austria'
b'Elektro Rauch e.U.',b'+43 2854 6370',"b'Kirchberg am Walde 29, 3932 Kirchberg am Walde, \xc3\x96sterreich'",b'www.elektro-rauch.at',b'Austria'
b'Elektro Rauhofer GmbH & Co. KG',b'+43 1616 72810',"b'Wagner-Sch\xc3\xb6nkirch-Gasse 19, A-1230, Wien'",b'www.rauhofer.at',b'Austria'
b'Elektro Rechberger GmbH',b'+43 3336 4383',"b'Arzberg 116, 8253 Waldbach'",b'www.elektro-rechberger.at',b'Austria'
b'Elektro Reiter',b'+43 662 823461',"b'Nonntaler Hauptstrasse 84, 5020, Salzburg'",b'www.elektroservicepartner-reiter.at',b'Austria'
b'Elektro Rutter GmbH',b'+43 4232 2242',"b'Strandbadweg 2, 9100, V\xc3\xb6lkermarkt'",b'elektro-rutter.at',b'Austria'
b'Elektro Schober GmbH',b'+43 2955 71188',"b'Ruppersthal 71, 3701, Ruppersthal'",b'www.elektro-schober.at',b'Austria'
b'Elektro Schwaiger GmbH',b'+43 6584 7806',"b'Am Kirchplatz 5, 5761, Maria Alm am Steinernen Meer'",b'elektroschwaiger.at',b'Austria'
b'Elektro Spreitzer GmbH',b'+43 7475 52327',"b'Graben 24, A-3363, Ulmerfeld'",b'www.elektro-spreitzer.at',b'Austria'
b'Elektro Stadler GmbH',b'+43 5339 8912',"b'Tegelanger, Auffach 337, 6313 Wildsch\xc3\xb6nau'",b'www.elektro-stadler.at',b'Austria'
b'Elektro Stecher',b'+43 5574 53565',"b'Alberlochstra\xc3\x9fe 7, 6911 Lochau'",b'www.elektro-stadler.at',b'Austria'
b'Elektro Technik Plangger GmbH',b'+43 5476 6060',"b'Fisserstra\xc3\x9fe 1, 6533, Fiss'",b'www.elektro-plangger.at',b'Austria'
b'Elektro Tisch GmbH',b'+43 42463959',"b'Millst\xc3\xa4tter Stra\xc3\x9fe 82, 9544 Feld am See'",b'elektrogeraete-haushaltsgeraete-shop.at',b'Austria'
b'Elektro Volk Ges.m.b.H',b'+43 2732 71165',"b'Kremstalstra\xc3\x9fe 53, 3500, Krems'",b'www.volk.at',b'Austria'
b'Elektro Wenger GmbH',b'+43 6245 809660',"b'Adnet 221, 5421, Adnet, Salzburg'",b'www.elektro-wenger.at',b'Austria'
b'Elektro Widlroither Installations- und Handels G.m.b.H',b'+43 6232 2266',"b'Hickmanngasse 1, 5310, Mondsee'",b'elektro-widlroither.at',b'Austria'
b'Elektro Wiesinger GmbH',b'+43 7260 21044',"b'Dimbach 58, A-4371, Dimbach'",b'www.elektro-wiesinger.at',b'Austria'
b'Elektro Winter',b'+43 676 3714020',"b'Els 66, 3613, Albrechtsberg'",b'www.elektro-winter.at',b'Austria'
b'Elektro Wirth GmbH',b'+43 2688 72512',"b'Wiener Neust\xc3\xa4dter Stra\xc3\x9fe 2, 7035, Steinbrunn'",b'www.elektro-wirth.at',b'Austria'
b'Elektro-Kollaczia GmbH',b'+43 5332 81737',"b'Perlmooserstr 12, 6322 Kirchbichl'",b'www.elektro-wirth.at',b'Austria'
b'Elektro-Meisterbetrieb - Bernhard Herzog e.U.',b'+43 2252 78808',"b'Flugfeldstra\xc3\x9fe 62 / 1, 2540 Bad V\xc3\xb6slau'",b'www.elektro-wirth.at',b'Austria'
b'Elektro.con Elektromontagen- und Anlagentechnik GmbH',b'+43 2263 81150',"b'Hauptstra\xc3\x9fe 74, 2124, Niederkreuzstetten'",b'https://www.elektro-con.at',b'Austria'
b'Elektrojet Kuterer GmbH',b'+43 3175 30588',"b'Pettauer Stra\xc3\x9fe 2, 8184, Anger'",b'https://www.elektro-con.at',b'Austria'
b'Elektrotechnik Andreas Strasser',b'+43 5223 55564',"b'Gewerbepark 5, 6068 Mils'",b'https://www.elektro-con.at',b'Austria'
b'Elektrotechnik Harald Tantscher',b'+43 3151 30596',"b'Obergnas 59, 8342 Gnas'",b'https://www.elektrotechnik-tantscher.at',b'Austria'
b'Elektrotechnik Krenmayr Ges.m.b.H.',b'+43 2646 2226',"b'Wiener Stra\xc3\x9fe 23, 2860 Kirchschlag'",b'www.krenmayr.co.at',b'Austria'
b'Elektrotechnik Moser',b'+43 676 3123340',"b'Stockerfeld 405, 5571 Mariapfarr'",b'https://www.elektrotechnik-moser.at',b'Austria'
