Company Name,Phone Number,Address,Website,Country
10hoch4 Energiesysteme GmbH,+43 676 3090780,www.10hoch4.at,Austria
1st Level Solar GmbH,+43 1 4168517,www.1stlevelsolar.com,Austria
Adler Erik,+43 664 2341680,www.adler-technik.at,Austria
AES Energie Technik GmbH,+43 2872 754120,www.aes-energietechnik.at,Austria
Air Toshiba,+43 2266 22260,https://www.air-toshiba.at,Austria
Allmer GmbH,+43 7487 2241,https://www.air-toshiba.at,Austria
Alois & Peter Samhaber GesmbH,+43 7276 2768,www.samhaber-gmbh.at,Austria
Alois Perwein GmbH,+43 6452 6401,www.perwein.at,Austria
Alpsan Vertriebs GmbH,+43 5232 2100160,https://www.alpsan.at,Austria
Alternativ Installationen GmbH,+43 7734 34014,www.a-i.at,Austria
Andreas Gretzel Elektro - Photovoltaik,+43 664 2378462,www.photovoltaik-gretzel.at,Austria
Andreas Kreiseder GmbH,+43 662 480276,www.andreas-kreiseder.at,Austria
APEM GmbH,+43 3337 33323,https://www.apem.at,Austria
Appel GmbH,+43 2841 9001,appel.at,Austria
ARES - Energysystems GmbH,+43 699 10201021,www.ares-energysystems.com,Austria
Austria Energy Group,+43 1 3363336,https://www.austriaenergy.com,Austria
AustroInstal Srl,+43 688 60777111,www.austroinstal.ro,Austria
Balmax Solar & Elektrotechnik,+43 2683 48980,www.balmax.at,Austria
Bau & Dach GmbH Spenglerei - Dachdeckerei,+43 316 723130,www.bau-dach.at,Austria
Baumgartner Energy GmbH,+43 7735 20256,www.baum-energy.at,Austria
Bayer GmbH,+43 2758 4010,www.bayer-installationen.com,Austria
Bayer Elektrohandel GmbH,+43 7586 7281,https://www.elektrobayer.com,Austria
BE-Tech,+43 676 3727610,www.be-tech.at,Austria
BF Elektrotechnik Gmbh,+43 699 10308291,www.bf-elektrotechnik.at,Austria
Blaim GmbH,+43 2982 3667,www.solarprofi.at,Austria
Blue-Solution GmbH,+43 2234 744680,www.blue-solution.at,Austria
Betriebsmontagen Dienstleistungen GmbH,+43 7248 61591,www.bmd.co.at,Austria
BOS GmbH,+43 512 583872,www.bos-technology.eu,Austria
Wärme- und Elektrotechnik Wilfried Boxrucker,+43 7713 505515,www.boxrucker.at,Austria
Bramac Dachsysteme International GmbH,+43 2757 40100,www.bramac.com,Austria
BRE Installationen Buchner-Raidel-Enzinger GesmbH,+43 6215 82150,https://www.bre.at,Austria
Breitsprecher Erneuerbare Energien GmbH,+43 699 13322441,www.breitsprecher.at,Austria
Brüder Gros,+43 1810 51000,https://www.bruedergros.at,Austria
Dachdeckerei Spenglerei Brugger GmbH,+43 4762 81719,www.bruggerdach.at,Austria
Brunner Max GmbH,+43 5242 64535,www.haustechnik-brunner.at,Austria
BW-Dach,+43 699 12980012,https://www.bw-dach.at,Austria
Carbon Projektentwicklung GmbH,+43 2734 32270,www.carbon-austria.com,Austria
Clean Capital Energy Group GmbH,+43 50 2640,https://at.cce.solar,Austria
CCE Österreich GmbH,+43 50 2640,https://www.cc-energy.com,Austria
Clicksolar GmbH,+43 463 740488,www.clicksolar.at,Austria
Conversio GmbH,+43 4769 20834,conversioaustria.at,Austria
CPG Competitive Power Generation GmbH,+43 1 9710971,https://www.cpg-power.at,Austria
CrossPower Energy GmbH,+43 2236 367633,https://www.cpg-power.at,Austria
Dachdeckerei Hans-Peter Felbermayer,+43 2236 41548,www.hpf-dach.at,Austria
DAfi GmbH,+43 6458 20160,www.dafi.at,Austria
De Corti GmbH,+43 3465 3147,https://www.decorti.at,Austria
Die Elektroprofis,+43 650 3952865,www.elektroprofis.at,Austria
DieNeuen Bau & Haustechnik GmbH,+43 3179 27755,www.die-neuen.at,Austria
Dillinger Installationstechnik,+43 2272 63328,www.dillinger.co.at,Austria
Dino Energie GmbH,+43 669 13323333,www.dino-energie.at,Austria
Dipl. Ing. F. Legerer Installationstechnik GesmbH,+43 2282 8538,www.haustechnik-legerer.at,Austria
Dispo-projekts,+43 676 5441909,www.sonnenkw.at,Austria
Doma Elektro Engineering GmbH,+43 7752 81097,www.sonnenkw.at,Austria
DOMA Solartechnik,+43 5524 53530,www.domasolar.com,Austria
Ing. Hans Drascher GmbH,+43 1 7987538,www.drascher.at,Austria
E-klar Technologies GmbH,+43 7766 4444,www.e-klar.com,Austria
E-Natura GmbH,+43 676 3025582,www.e-natura.at,Austria
E-Tech Demuth GmbH,+43 2142 20030,www.e-techdemuth.at,Austria
E-Technik Laure GmbH,+43 463 511282,https://www.et-laure.at,Austria
E-Werk Gleinstätten GmbH,+43 3457 40110,www.ktg-austria.at,Austria
E-Werk Gröbming,+43 3685 223430,https://www.das-ewerk.at,Austria
E. Kneidinger GmbH & Co. KG,+43 7223 85275,www.elektro-kneidinger.at,Austria
E.C.E. Wurmitzer GmbH,+43 4276 3663,www.wurmitzer.at,Austria
e.denzel GmbH,+43 316 273188,www.e-denzel.at,Austria
E1 Wärme und Energie GmbH,+43 316 900055000,www.e-eins.at,Austria
EAH Elektro-Anlagen-Huber GmbH,+43 5442 62750,www.e-eins.at,Austria
Elektro- Anlagen u. Verteilerbau GmbH,+43 7748 32214,https://www.eav-gmbh.at,Austria
Eco-Tec.at Photovoltaics GmbH,+43 3682 243640,www.eco-tec.at,Austria
Ecowatt Erneuerbare Energien GmbH,+43 3124 541110,https://www.ecowatt.at,Austria
Elektrotechnik Christoph Peer,+43 664 4244338,https://www.elektro-christophpeer.at,Austria
Edirektsolar GmbH,+43 5574 23891,www.edirektsolar.at,Austria
EET-Knees GmbH & Co KG,+43 4224 23735,https://www.eet-knees.at,Austria
EGIP GmbH,+43 664 88187400,www.egip.at,Austria
Ehoch2 Energy Engineering,+43 676 5342989,www.ehoch2.co.at,Austria
Einsiedler Solartechnik GmbH,+43 7242 43284,www.einsiedler-solar.at,Austria
ekt Photovoltaik Elektro und Kommunikationstechnik,+43 6244 20500,www.ekt.at,Austria
Elektro Tischner & Klein GmbH,+43 4242 550110,www.etk.at,Austria
Elando Elektrotechnik GmbH,+43 6582 21003,www.etk.at,Austria
Electric Maric GmbH,+43 316 824294,www.elektro-marics.at,Austria
Electrical Engineering Leitinger Photovoltaik GmbH,+43 6583 20901,https://www.photovoltaik-elektrotechnik.at,Austria
Electrical Engineering Thomas Ostermann GmbH,+43 664 2711117,www.thomasostermann.at,Austria
Elekrtotechnik Fritz,+43 650 2025483,https://www.elektrofritz.at,Austria
Elektrizitätswerk Gösting V. Franz GmbH,+43 316 60770,www.ewg.at,Austria
Elektro - Industrieanlagenbau GesmbH,+43 800 400171731,www.elektrofleischer.at,Austria
Elektro & Electronic Brunmüller GmbH,+43 7476 773200,www.brunmueller.at,Austria
Elektro Achorner GmbH,+43 5356 63326,https://www.elektro-achorner.at,Austria
Elektro Antretter GmbH,+43 5334 6225,elektro-antretter.at,Austria
Elektro Auer GmbH,+43 1 6039200,www.elektro-auer.com,Austria
Elektro Babinsky KG,+43 2952 2146,www.elektrobabinsky.at,Austria
Firma Elektro Böhm,+43 664 4710544,www.elektrobabinsky.at,Austria
Elektro Buchinger GmbH,+43 7682 6275,expert-buchinger.at,Austria
Elektro Buder GmbH,+43 7246 801880,www.elektro-buder.at,Austria
Elektro Dohr GmbH,+43 4352 2293,https://www.elektro-dohr.at,Austria
Elektro Dollfuß GmbH,+43 7483 7077,www.elektrodollfuss.at,Austria
Elektro Ebner Gesellschaft m.b.H. & Co. KG.,+43 7435 52594,https://www.elektroebner.at,Austria
Elektro Enzi Handelsges m.b.H.,+43 4235 2292,www.elektroenzi.at,Austria
Elektro EPP GmbH,+43 2642 52017,elektro-epp.at,Austria
Elektro ESL Gmbh,+43 6474 29120,www.esl-elektro.at,Austria
Elektro Feichtner,+43 7712 2401,https://elektro-feichtner.at,Austria
Elektro Froschauer Gesellschaft mbH & Co KG,+43 7479 7264,expertfroschauer.at,Austria
Elektro Gasser GmbH,+43 48 22303,www.elektro-gasser.at,Austria
Elektro Göbl-Schachinger GmbH,+43 664 4529629,et-schachinger.at,Austria
Elektro Hackl GmbH,+43 4762 42073,www.elektrohackl.at,Austria
Elektro Hainz GmbH,+43 5282 2578,www.elektro-hainz.at,Austria
Elektro Hartlieb GmbH,+43 4762 5235,www.elektro-hartlieb.at,Austria
Elektro Helmut Sunk eU,+43 676 4970586,www.elektro-sunk.at,Austria
Elektro Hentschel Gesellschaft m.b.H.,+43 3622 716730,www.elektro-sunk.at,Austria
Elektro Horvath GesmbH,+43 2146 2317,www.elektrohorvath.at,Austria
Elektro Kammerhofer GmbH,+43 3858 61110,www.ok-kammerhofer.at,Austria
"Kammerhofer & Co. Elektrotechnisches Installationsunternehmen, GmbH",+43 7252 891,www.kammerhofer.at,Austria
Elektro Karrer GesmbH,+43 7224 4318,www.karrernet.at,Austria
Elektro Kern GmbH,+43 7942 72600,www.e-kern.at,Austria
Elektro Klocker GMBH,+43 5334 30720,https://www.elektro-klocker.at,Austria
Elektro Kogler GesmbH,+43 4262 2676,www.elektro-kogler.at,Austria
Elektro Kölbel KG,+43 7444 7251,www.elektro-koelbel.at,Austria
Elektro Korschan e.U.,+43 2622 71017,www.solar-pv.at,Austria
Elektro Kropiunik GesmbH,+43 4228 3397,www.elektro-kropiunik.at,Austria
Elektro Lafer GmbH,+43 3472 2142,www.elektro-lafer.at,Austria
Elektro Landschützer GmbH & Co KG,+43 6477 8389,expert-landschuetzer.at,Austria
Elektro Lang GmbH & Co KG,+43 3455 804420,www.elektro-lang.at,Austria
Elektro Langeder GmbH & Co KG,+43 6468 52900,https://www.elektro-langeder.at,Austria
Elektro Leitl GmbH,+43 7723 42380,www.elektro-leitl.at,Austria
Elektro Lichtenwagner GmbH & Co KG,+43 7615 7377,www.elektro-lichtenwagner.at,Austria
Elektro Lipp,+43 676 7510771,https://www.elektro-lipp.at,Austria
Elektro Andreas Maislinger,+43 7748 3041,www.elektro-maislinger.at,Austria
Elektro Mayerhofer Ges.m.b.h.,+43 2253 7971,https://www.ekm1.at,Austria
Elektro Meier Hubert,+43 6641 449803,www.elektro-meier-hubert.at,Austria
Elektro Mörth GmbH,+43 2953 2326,www.elektro-moerth.at,Austria
Energietechnik Nauschnegg GmbH,+43 3466 43054,www.nauschnegg.at,Austria
Elektro Neuböck Ges.m.b.H. & Co. KG,+43 7719 86100,www.neuboeck.at,Austria
Elektro Neuhuber GmbH,+43 7682 4094,www.elektro-neuhuber.at,Austria
Elektro Neunegger GmbH,+43 4762 2314,www.elektro-neuhuber.at,Austria
Elektro Oberreiter GmbH & Co. KG,+43 7945 7686,www.elektro-oberreiter.at,Austria
Elektro Ortner GmbH,+43 4852 68660,elektro-ortner.at,Austria
Elektro Pointner,+43 699 18000097,www.elektro-pointner.at,Austria
Elektro Pühringer GmbH,+43 7269 7575,www.ep-puehringer.at,Austria
Elektro Rapold GmbH,+43 2674 87373,https://www.elektro-rapold.at,Austria
Elektro Rauch e.U.,+43 2854 6370,www.elektro-rauch.at,Austria
Elektro Rauhofer GmbH & Co. KG,+43 1616 72810,www.rauhofer.at,Austria
Elektro Rechberger GmbH,+43 3336 4383,www.elektro-rechberger.at,Austria
Elektro Reiter,+43 662 823461,www.elektroservicepartner-reiter.at,Austria
Elektro Rutter GmbH,+43 4232 2242,elektro-rutter.at,Austria
Elektro Schober GmbH,+43 2955 71188,www.elektro-schober.at,Austria
Elektro Schwaiger GmbH,+43 6584 7806,elektroschwaiger.at,Austria
Elektro Spreitzer GmbH,+43 7475 52327,www.elektro-spreitzer.at,Austria
Elektro Stadler GmbH,+43 5339 8912,www.elektro-stadler.at,Austria
Elektro Stecher,+43 5574 53565,www.elektro-stadler.at,Austria
Elektro Technik Plangger GmbH,+43 5476 6060,www.elektro-plangger.at,Austria
Elektro Tisch GmbH,+43 42463959,elektrogeraete-haushaltsgeraete-shop.at,Austria
Elektro Volk Ges.m.b.H,+43 2732 71165,www.volk.at,Austria
Elektro Wenger GmbH,+43 6245 809660,www.elektro-wenger.at,Austria
Elektro Widlroither Installations- und Handels G.m.b.H,+43 6232 2266,elektro-widlroither.at,Austria
Elektro Wiesinger GmbH,+43 7260 21044,www.elektro-wiesinger.at,Austria
Elektro Winter,+43 676 3714020,www.elektro-winter.at,Austria
Elektro Wirth GmbH,+43 2688 72512,www.elektro-wirth.at,Austria
Elektro-Kollaczia GmbH,+43 5332 81737,www.elektro-wirth.at,Austria
Elektro-Meisterbetrieb - Bernhard Herzog e.U.,+43 2252 78808,www.elektro-wirth.at,Austria
Elektro.con Elektromontagen- und Anlagentechnik GmbH,+43 2263 81150,https://www.elektro-con.at,Austria
Elektrojet Kuterer GmbH,+43 3175 30588,https://www.elektro-con.at,Austria
Elektrotechnik Andreas Strasser,+43 5223 55564,https://www.elektro-con.at,Austria
Elektrotechnik Harald Tantscher,+43 3151 30596,https://www.elektrotechnik-tantscher.at,Austria
Elektrotechnik Krenmayr Ges.m.b.H.,+43 2646 2226,www.krenmayr.co.at,Austria
Elektrotechnik Moser,+43 676 3123340,https://www.elektrotechnik-moser.at,Austria
Elektrotechnik Neuhold GmbH,+43 664 1322032,elektrotechnik-neuhold.at,Austria
Elektrotechnik Nothegger GmbH,+43 6548 20177,https://www.elektro-nothegger.at,Austria
Elektrotechnik Roider KG,+43 699 12565978,www.elektrotechnik-roider.at,Austria
e.t.u. Elektrotechnik Unger GmbH,+43 2212 21165,www.etu.co.at,Austria
Elektrotechnik Walter Traxler GmbH & Co KG,+43 676 83465200,www.elektro-installationen.wien,Austria
Elektrotechnik Wiederin,+43 660 7096393,https://www.e-wiederin.at,Austria
Elektrotechnik Wild GmbH,+43 7252 48759,elektrotechnik-wild.at,Austria
Elektrowerkstatt Gubesch Ges.m.b.H.,+43 7258 29397,www.gubesch.at,Austria
ELMA eU,+43 664 1005433,www.elma.at,Austria
Elwera Installations GesmbH,+43 1 76921250,https://www.elwera.at,Austria
Emh-automatisierung GmbH,+43 660 3919385,www.emh-automatisierung.at,Austria
EMK Elektrotechnik Kuternig e.U.,+43 4228 387850,www.emk-kuternig.at,Austria
EMMZ Elektro-Management,+43 800 400171436,https://www.emmz.at,Austria
EN Elektrotechnik GmbH,+43 800 400172181,https://www.en-elektrotechnik.at,Austria
ENcome Energy Performance GmbH,+43 463 210300905,www.en-come.com,Austria
Energetica Energy GmbH,+43 4215 93056,www.energetica-pv.com,Austria
Energie AG Oberösterreich,+43 800 818000,www.energieag.at,Austria
Energie Burgenland AG,+43 5 77700,www.energieburgenland.at,Austria
Energie Consulting Ing. Walter Kohlfürst BSc.,+43 660 4030932,https://www.energieconsulting-kohlfuerst.at,Austria
Energie Graz GmbH & Co KG,+43 316 80571857,www.energie-graz.at,Austria
Energie Steiermark AG,+43 316 9000,https://www.e-steiermark.com,Austria
Energie und Badkultur GmbH,+43 3352 21091,https://www.energieundbadkultur.at,Austria
Energieautonom GmbH,+43 6543 21200,https://e-autonom.at,Austria
Energietechnik GmbH,+43 5354 88425,https://www.1a-energietechnik.at,Austria
Energy3000 Solar GmbH,+43 720 993000,www.energy3000.com,Austria
Entner Matthias Photovoltaik und Montage,+43 79 3036019,www.entner-photovoltaik.at,Austria
EP Haustechnik KG,+43 4284 20438,www.entner-photovoltaik.at,Austria
EP:Elektrotechnik Langer GmbH,+43 6214 6608,www.entner-photovoltaik.at,Austria
EQ-Systems GmbH,+43 5573 84176,www.eq-systems.at,Austria
ERGE Electronics GmbH,+43 1 8108661,www.eq-systems.at,Austria
Erhart-EMS Green Tech Solutions GmbH,+43 3382 209151,www.erhart-ems.at,Austria
Ernst Schiermayr GesmbH & Co. KG,+43 7673 2066,www.schiermayr.at,Austria
Elektro-Regeltechnik Steiner GmbH,+43 3332 21800,www.elektro-regeltechnik.at,Austria
Elektronische Steuerungs- und Automatisierungs Ges.m.b.H.,+43 7253 75150,https://www.esa.at,Austria
Essl Dach GmbH,+43 6232 3385,www.essl-dach.at,Austria
ET-König GmbH,+43 664 5319079,www.et-koenig.at,Austria
Etech Schmid u. Pachler Elektrotechnik GmbH & CoKG,+43 732 7128120,www.etech.at,Austria
ETL Elektrotechnik GmbH,+43 7724 44004,www.etl-elektrotechnik.at,Austria
Etm-energy.at,+43 680 4019396,https://www.etm-energy.at,Austria
Etr Elektrotechnik Reiter,+43 644 5111107,https://www.etr.co.at,Austria
Elektro Technik Schiffner GmbH,+43 664 88199501,www.et-schiffner.at,Austria
Everto Solarstrom & Photovoltaiktechnik,+43 3452 20802,www.everto.at,Austria
EXA GmbH,+43 699 15000122,www.exa.co.at,Austria
Expert Österreich e.Gen.,+43 7242 290700,https://www.expert.at,Austria
Expert Bruckner e.U.,+43 7475 52391,https://www.expert.at,Austria
Expert Dorfmayr,+43 7477 42250,https://www.dorfmayr.at,Austria
Expert Haghofer,+43 7942 72314,https://www.dorfmayr.at,Austria
Expert Hein,+43 3159 2555,expert-hein.at,Austria
Expert Hölzl,+43 6415 4257,https://www.elektro-hoelzl.at,Austria
Expert Lenz,+43 7260 45140,https://www.elektro-hoelzl.at,Austria
Expert Voglmayr,+43 7766 2310,https://www.elektro-hoelzl.at,Austria
EZP Systec GmbH,+43 316 6821930,www.ezp-systec.at,Austria
F&M Elektrotechnik GmbH,+43 6216 5250,www.fmelektro.at,Austria
Fabbri Dach GmbH,+43 2662 42304,www.fabbri.at,Austria
Farcher GesmbH,+43 2764 2370,www.fabbri.at,Austria
Johann Fasching Installation GmbH,+43 3865 3118,www.ht-fasching.at,Austria
Feistritzwerke Steweag GmbH,+43 3112 26530,www.feistritzwerke.at,Austria
Fida-Installationen GmbH,+43 2841 8685,www.fida-installationen.at,Austria
Fiegl & Spielberger GmbH,+43 512 3333,www.fiegl.co.at,Austria
Florian Lugitsch KG,+43 3152 25540,www.e-lugitsch.at,Austria
Forschner Haustechnik GmbH,+43 2536 72970,www.e-lugitsch.at,Austria
Franz Rehberger GmbH,+43 2236 23435,www.e-lugitsch.at,Austria
Freiding Erneuerbare Energien GmbH,+43 316 3393920,www.freiding.at,Austria
Friedrich Neidhart Ges.m.b.H.,+43 2754 6254,www.neidhart.at,Austria
Fuchs Josef GmbH,+43 2616 2000,www.josef-fuchs.at,Austria
Funktechnik Klein GmbH,+43 3354 2012220,https://www.ftk.at,Austria
G. Braumann Gesellschaft m.b.H.,+43 7750 20300,https://www.braumann.co.at,Austria
Gamsjäger GmbH,+43 7412 522490,elektrogamsjaeger.at,Austria
Gasokol GmbH,+43 7269 76600,www.gasokol.at,Austria
GAT Solar GmbH,+43 3176 8127,gruebl-automation.at,Austria
Gatterer GmbH,+43 4852 67433,www.gatterer-heizung.com,Austria
Gawahei Installationen GmbH,+43 2236 379998,https://www.gawahei.at,Austria
GCC Spenglerei,+43 2955 71284,https://www.spenglerei-gcc.at,Austria
Gebrüder Limmert Aktiengesellschaft,+43 662 889330,www.limmert.com,Austria
Michael Geist,+43 2946 2247,www.limmert.com,Austria
Geko Systemstahlbau GmbH,+43 4715 24805,www.geko.pro,Austria
Elektrotechnik Georg Eisl GmbH,+43 6137 7022,www.elektro-eisl.at,Austria
Gernot Brunner e.U.,+43 4875 6944,expert-brunner.at,Austria
Glasbautechnik Schmidhuber,+43 6235 7334,www.glasbautechnik-schmidhuber.at,Austria
Gnam Elektrotechnische Anlagen Ges.m.b.H,+43 2622 78771,www.gnam.at,Austria
GPA System Group,+43 676 6406457,www.greenpact.at,Austria
Graspointner Robert GmbH,+43 6232 28310,www.graspointner.com,Austria
Green Focus Contracting,+43 1300 733172,https://www.gfcontracting.com.au,Austria
Green Source GmbH,+43 1 89021720,www.greensource.at,Austria
Gruber Haustechnik,+43 3185 2374,www.gruberhaustechnik.at,Austria
Grundner Solarmontagen GmbH,+43 7614 20054,www.grundner-solarmontagen.at,Austria
Grutsch Technik GmbH,+43 5412 61181,www.grutsch.at,Austria
GS Technik Produktions- und Vertriebs GmbH,+43 4235 22202,www.grutsch.at,Austria
Günther Handle GmbH,+43 5472 6418,https://www.handle.co.at,Austria
Gutenthaler Elektroinstallationen GesmbH,+43 2243 83338,www.gutenthaler.at,Austria
Guttmann Elektrotechnik GmbH,+43 7254 8243,https://www.elektrotechnik-guttmann.at,Austria
GemeindeWerke Telfs GmbH,+43 5262 62330,www.gwtelfs.at,Austria
GWH Energietechnik GmbH,+43 2252 55998,www.energytec.at,Austria
Installateur Harald Meisinger e.U.,+43 7282 7033,www.meisinger.cc,Austria
H2 Energietechnik GmbH,+43 7245 21114,h2e.at,Austria
Haberl Elektrotechnik GmbH,+43 7719 20136,www.elektrotechnik-haberl.at,Austria
Hammerschmid GmbH,+43 7236 2246,www.hammerschmid-hzg.at,Austria
Hanlo Hauser,+43 800 311312,https://www.hanlo.at,Austria
Hans Anton Hochfilzer,+43 5333 5443,elektro-hochfilzer.at,Austria
Harisberger Fair Energy e.U.,+43 660 2737606,https://www.harisberger.at,Austria
Haustechnik Güssing GmbH,+43 3322 42321,www.htg.at,Austria
Haustechnik Hochrieder GmbH,+43 2274 22380,https://www.hochrieder.at,Austria
Haustechnik Vöcklabruck,+43 7672 727150,www.haustechnik-voecklabruck.at,Austria
HBT Energietechnik e.U,+43 3582 210190,hbt-energy.com,Austria
Heidecker Ges.m.b.H. Dachdeckerei,+43 2272 66362,heidecker.at,Austria
Heizfink,+43 664 1409277,heizfink.at,Austria
Heizung Sanitär H. Uhrmann Ges.m.b.H.,+43 1 20418190,https://www.uhrmann.at,Austria
Heizungsbau Solartechnik,+43 2849 8615,www.solar-kuhn.at,Austria
Hellmayr GmbH,+43 7249 47006,www.hellmayr.at,Austria
Helm Sicherheits-/Energietechnik,+43 7729 20200,www.setech-helm.at,Austria
Herbitschek Bau-GmbH,+43 3173 23580,www.herbitschek.at,Austria
Hereschwerke GmbH,+43 3182 22160,www.hereschwerke.com,Austria
Hess Bauspenglerei und Dachdeckerei GmbH,+43 1 8133288,www.unserdach.at,Austria
Hinteregger-ESTEC Gesellschaft für Energiespartechnologie GmbH,+43 2236 3771800,https://www.solartechnik.at,Austria
Hochstöger Ges.m.b.H,+43 7265 5262,https://www.hochstoeger-dach.at,Austria
Höller Elektrotechnik GmbH,+43 2944 26026,www.elektro-hoeller.at,Austria
Hörburger GmbH & Co KG,+43 5576 72483,www.elektro-hoeller.at,Austria
Rudolf Hörmann GmbH & Co. KG,+43 8241 96820,www.hoermann-photovoltaik.com,Austria
Hörmann Technik GmbH,+43 2842 51600,www.hoermann-photovoltaik.com,Austria
HSA Scharrenbroich GmbH,+43 2266 63437,www.hsa.co.at,Austria
Holz die Sonne ins Haus Energieconsulting GmbH,+43 4212 30440,holzdiesonne.net,Austria
Huber Photovoltaik GmbH,+43 676 7283517,pv-huber.at,Austria
Hubmann Bau GmbH,+43 3135 46149,www.hubmann-bau.at,Austria
Huemer GmbH,+43 7241 28600,www.huemer-energietechnik.at,Austria
i+R Gruppe GmbH,+43 5574 6888,https://www.ir-gruppe.com,Austria
Ing. Aigner Wasser-Wärme-Umwelt GmbH,+43 7227 6081,www.ing-aigner.at,Austria
Ing. Erwin Dobraunig Ges.m.b.H.,+43 4213 2097,www.dobraunig.at,Austria
Ing. Fritz Manschein GmbH,+43 2574 2138,www.elektro-manschein.at,Austria
Ing. Gindl Gesellschaft m.b.H.,+43 2245 6000,www.gindl.at,Austria
Ing. Hans Jürgen Laschat,+43 3144 34500,baudendistel.at,Austria
Ing. Kiselka Umwelttechnik GmbH,+43 2236 866346,www.kiselka.at,Austria
Ing. Witke Ges.m.b.H.,+43 176 98350,www.witke.com,Austria
IS-Elektrotechnik GmbH,+43 2622 75533,www.e-installationen.at,Austria
ITH Engineering,+43 664 5066749,www.ith-engineering.at,Austria
IWD GmbH,+43 4352 71018,iwd-gmbh.at,Austria
JED Solar Service eU,+43 4266 27600,https://www.jedsolarservice.at,Austria
JK Dach GmbH & Co. KG,+43 4239 3130,www.jkdach.com,Austria
JM Montagen,+43 676 9350030,www.montage-solar.com,Austria
Johann Redinger,+43 7722 635050,expert-redinger.at,Austria
Josef Rieder Haustechnik GmbH,+43 6468 52400,https://www.rieder1a.at,Austria
Jürgen Weidlinger GmbH,+43 7242 890039,www.sollets.at,Austria
K.u.F. Drack GmbH & Co KG,+43 7615 22140,www.kfd.at,Austria
DI Christopher Patrick Kager,+43 2682 61360,https://www.expert-kager.at,Austria
KAP-Haustechnik GmbH,+43 316 241605,www.kap-haustechnik.at,Austria
Kärnten Solar,+43 699 11041978,www.kaernten-solar.at,Austria
Kernbauer Energy Solutions GmbH,+43 1 3944040,https://www.kernbauer-solutions.at,Austria
Kiendler GmbH,+43 3183 82010,elektrotechnik.kiendler.at,Austria
Kieninger GesmbH,+43 6135 68000,https://www.kieninger.at,Austria
Klammler GmbH,+43 3179 23630,www.klammler.at,Austria
Klenk & Meder GmbH,+43  2742 8980,www.klammler.at,Austria
Klingler Installationen GmbH,+43 5339 815600,solarklingler.at,Austria
Kmentt GmbH & Co KG,+43 316 282373,www.dach-kmentt.at,Austria
Koglertec e. U.,+43 664 88690783,www.dach-kmentt.at,Austria
Kollar GmbH,+43 2762 52276,www.kollar.at,Austria
Kommerzialrat Hrdlicka & Sohn GmbH,+43 2213 2413,dach-hrdlicka.at,Austria
KPV Solar GmbH,+43 463 21807323,www.kpv-solar.com,Austria
Kraftwerk Photovoltaik GmbH,+43 5576 73304,www.kraftwerk-photovoltaik.at,Austria
Krammer Elektrotechnik GmbH & CO KG,+43 3452 86555,www.krammer-elektrotechnik.at,Austria
Kraus Franz Gesmbh,+43 1869 3699,https://www.dachschaden.co.at,Austria
Kriechhammer Haustechnik GmbH,+43 7746 20531,www.kriechhammer.co.at,Austria
Krottmeier Electrical System,+43 664 2733914,www.elektrik-krottmeier.at,Austria
Kurt Wimmer GmbH,+43 7724 3297,expert-wimmer.at,Austria
Lackner Energietechnik GmbH,+43 3685 23777,www.lackner-bhkw.at,Austria
Raiffeisen-Lagerhaus Mostviertel Mitte eGen,+43 2757 2201,www.lagerhaus-mostviertelmitte.at,Austria
Lauss Gebäudetechnik GmbH & Co KG,+43 7289 71575,www.lauss.at,Austria
Lautner-Heizung GmbH,+43 2147 2572,www.lauss.at,Austria
Lehner Dach GmbH,+43 7477 42544,www.lehnerdach.at,Austria
Lemp Energietechnik eU,+43 2732 888333,https://www.lemp-energietechnik.at,Austria
Licht Loidl GmbH,+43 3338 22070,www.licht-loidl.at,Austria
Licht und Wärme Elektrotechnik Burtscher GmbH,+43 5553 80099,www.lichtundwaerme.at,Austria
Lichtenegger Etech,+43 6135 21455,www.lichtenegger-etech.at,Austria
Lins Dach & Fassade GmbH,+43 5522 72308,www.linsdach.at,Austria
Hans Lohr Gesellschaft m.b.H.,+43 1985 95850,www.lohr.at,Austria
LSG Group GmbH,+43 1 61666520,www.lsg-group.eu,Austria
Lugar Installateur GesmbH,+43 1 8862759,https://www.lugar.at,Austria
Lumplecker Elektro- und Energieoptimierungs GmbH,+43 7355 65640,lumplecker.at,Austria
Luzian Bouvier Haustechnik & Fliesen GmbH,+43 5442 64444,https://www.bouvier.at,Austria
M&G Bad+Raum GmbH,+43 1 7986129,www.badundraum.at,Austria
M&M Energietechnik GmbH,+43 7248 64776,https://www.mm-energietechnik.at,Austria
Marasolar GmbH,+43 7758 30500,www.marasolar.at,Austria
Marecek GmbH,+43 2279 22680,https://www.marecek.at,Austria
Markus Mühlthaler,+43 6412 20567,https://www.marecek.at,Austria
Markus Stolz GmbH & Co KG,+43 5552 630240,www.stolz.at,Austria
MayBerg OG,+43 699 19224203,www.mayberg.eu,Austria
MC-Capital GmbH,+43 316 931219,www.mc-capital.eu,Austria
MEA Solar GmbH,+43 7242 493234,www.mea-solar.at,Austria
Merl Solar Technologies GmbH,+43 3862 5767914,www.mea-solar.at,Austria
Metior Industrieanlagen Planungs- und Beratungs-Gesellschaft m.b.H.,+43 316 5868780,www.metior.at,Austria
MFsolutions GmbH,+43 2254 74950,www.mfsolutions.at,Austria
MHB - Holz und Bau GmbH im Mostviertel,+43 7442 55000,www.mhb.co.at,Austria
MIKe eU,+43 680 1323858,www.mike.co.at,Austria
Mitter GmbH,+43 2641 2238,www.mitterheizung.at,Austria
Mitterhuemer GmbH,+43 72 52799,www.mitterhuemer.at,Austria
MK TEC GmbH,+43 664 5153041,www.mitterhuemer.at,Austria
MK Service e.U.,+43 664 1539623,www.mkservice.at,Austria
Montron GmbH,+43 1607 2240,www.montron.at,Austria
Moser Solar GmbH,+43 7588 7264,www.moser-solar.at,Austria
MS Elektrotechnik GmbH,+43 664 4307726,www.ms-elektro.at,Austria
MSP Solarpower GmbH,+43 7233 80570,https://www.msp-solarpower.at,Austria
Muggenhumer Energiesysteme GmbH,+43 7248 64633,www.muggenhumer.at,Austria
Müller & Helmert GesmbH & Co. KG,+43 1 2161104,www.mueller-helmert.at,Austria
Mysun Photovoltaic Elektrotechnik,+43 7223 80145,www.mysun.at,Austria
Neue Energie Technik GmbH,+43 662 8211000,www.neue-energie-technik.net,Austria
Neudorfer Ges.m.b.h.,+43 7672 262960,www.alois-neudorfer.at,Austria
Nikko Photovoltaik GmbH,+43 676 9048892,www.nikko-pv.at,Austria
Nocker Metallbau GmbH,+43  5273 60500,www.nocker.at,Austria
Noortec GmbH,+43 699 11100200,www.noortec.at,Austria
NUR Elektrotechnik GmbH,+43 2682 68111,www.nurelektro.at,Austria
Oekostrom AG,+43 5 0575555,www.oekostrom.at,Austria
Ofenbinder Springsholz GmbH,+43 2742 8812020,www.ofenbinder.at,Austria
Ökosolar PV GmbH,+43 800 232319,www.oekosolar.com,Austria
Ökovolt Solartechnik GmbH,+43 6278 71030,oekovolt.com,Austria
Opbacher Matthias,+43 5288 62436,www.opbacher.com,Austria
OTAenergy,+43 676 9406130,otaenergy.com,Austria
P & W GmbH,+43 3842 4243220,www.photovoltaik-waermepumpen.at,Austria
Photovoltaics & Electrical Engineering Pernsteiner,+43 664 3835584,www.elektro-pernsteiner.at,Austria
Photovoltaik Team,+43 676 5065061,photovoltaik-team.com,Austria
Photovoltaik.co Firma Ing Helmut Knotz,+43 1 5856181,www.photovoltaik.co.at,Austria
Plasser Energy GmbH,+43 7722 640640,www.plasser-energy.at,Austria
Platzl Installationstechnik GmbH,+43 664 2320363,https://www.platzl.net,Austria
Plexon Solar Hofbauer GmbH,+43 512 546444,www.plexon-solar.com,Austria
Pöllmann & Partner GmbH,+43 6234 8585,www.plexon-solar.com,Austria
Elektrotechnik Posch GmbH,+43 2762 62605,www.elektroposch.at,Austria
Priesch Installationen GmbH,+43 3117 3180,www.priesch-installationen.at,Austria
Pro Sonne Solartechnik,+43 676 3347960,www.prosonne.at,Austria
Professional Energy Services GmbH,+43 1 4868080,www.profes.at,Austria
Profi-Elektro Installations- und Handels GmbH,+43 4766 2068,profi-elektro.at,Austria
Pucher Wärme- und Wassertechnik GmbH,+43 2735 21011,https://www.pucher-haustechnik.at,Austria
Püspök Group,+43 2166 22881,https://www.pucher-haustechnik.at,Austria
PVI GmbH,+43 463 2043080,www.pvi.co.at,Austria
PVS Energy GmbH,+43 2522 20302,www.pvs-energy.at,Austria
R-Power Umwelttechnik & Consulting GmbH,+43 5522 70164,www.pvs-energy.at,Austria
R. Liebhart GmbH,+43 1 8178683,https://www.dachdeckerei-liebhart.at,Austria
R1 Solar GmbH,+43 1 89031320,www.r1solar.com,Austria
"Raymann Kraft der Sonne ""Photovoltaikanlagen"" GmbH",+43 2247 21760,www.raymann.at,Austria
RCOM Elektro und Nachrichtentechnische Anlagen GmbH,+43 463 2917310,www.rcom.at,Austria
RES Renewable Energy Systems GmbH,+43 662 821100,https://res-energy.at,Austria
Resch Elektrotechnik GmbH,+43 3464 4044,https://res-energy.at,Austria
ReschDach GmbH & Co KG,+43 2626 62526,www.reschdach.at,Austria
RG-Sonnenstrom Gmbh,+43 664 3059003,www.reschdach.at,Austria
Büro für Erneuerbare Energie - Ing. Leo Riebenbauer GmbH,+43 3339 25113,www.reschdach.at,Austria
"Riegler - Bäder, Heizung",+43 2641 2421,https://www.installateur-riegler.at,Austria
Robert Leitner Elektrotechnik GmbH,+43 1 8137138,www.elektro-leitner.wien,Austria
Robert Reiter Dachdecker & Spengler GmbH,+43 3848 57626,www.reiter-dach.at,Austria
Technik Center Rosel GesmbH,+43 3174 4448,www.reiter-dach.at,Austria
ROTH Handel & Bauhandwerkerservice GmbH,+43 3151 22520,www.roth-diehandwerksmeister.at,Austria
Royal Lion GmbH,+43 1 5813265,royal-lion.at,Austria
RS Photovoltaik Betreiber GmbH,+43 664 3983100,royal-lion.at,Austria
Rudolf Gutmann u. Sohn GmbH & Co KG,+43 3382 522540,www.gutmann.co.at,Austria
Rudolf Stingeder e.U.,+43 732 640840,www.gutmann.co.at,Austria
S.E.T Solarenergietechnik GmbH,+43 664 4539385,https://www.set-solar.at,Austria
S&H Solar GmbH,+43 690 8016475,www.shsolar.at,Austria
Salzach Sonne GmbH,+43 6565 21676,www.salzachsonne.at,Austria
Sawotec Elektro Gmbh,+43 7752 81197,www.salzachsonne.at,Austria
Schachner Dach GesmbH,+43 3135 47462,https://www.schachner-dach.at,Austria
Schartner Elektro GmbH & Co KG,+43 6412 6327,https://www.schartner.at,Austria
Schelling Elektro Gesellschaft m.b.H. & Co. KG,+43 5572 22228,expert-schelling.at,Austria
Ing. Edgar Schellmann,+43 676 3015303,expert-schelling.at,Austria
Schneeberger GmbH,+43 7676 84950,https://www.expert-schneeberger.at,Austria
Schönberger - Alternative Haustechnik GmbH,+43 7742 2911,www.wohlig-warm.at,Austria
Schörkhuber Montage & Handel,+43 664 3815951,www.montage-handel.at,Austria
Schütz Technik GmbH,+43 7215 382000,https://www.schuetz-technik.at,Austria
SEC Sustainable Energy Concepts GmbH,+43 5 9809300,www.se-concepts.eu,Austria
ServTec Elektrotechnik,+43 2755 93080,www.servtec24.com,Austria
Seyfried-Jecho KG,+43 2952 2563,www.seyfried-jecho.at,Austria
SHT Haustechnik AG,+43 5 96960,www.sht-gruppe.at,Austria
SI Energiesysteme GmbH,+43 2246 34388,solarindustries.at,Austria
Meisterbetrieb Gas - Wasser - Heizung - Lüftung Walter Simsalik,+43 2852 54116,https://www.simsalik.at,Austria
Sinus Photovoltaik GmbH,+43 7733 20785,www.sinus-pv.at,Austria
Installateur Andreas Smutka,+43 2856 2428,www.smutka.com,Austria
Solar Concept Schierl GmbH,+43 699 14648650,www.solarconcept.at,Austria
Solar Engineering Guggenberger,+43 664 8119909,www.solarconcept.at,Austria
Solar-Neuper GmbH,+43 3571 2307,www.solar-neuper.at,Austria
SOLARier Gesellschaft für erneuerbare Energie mbH,+43 7235 89789,www.solarier.at,Austria
Solarpartner Energie- und Umwelttechnik GmbH,+49 7289 8905,www.solarpartner.at,Austria
SolarPower Energietechnik GmbH,+43 699 12345787,www.spa-energietechnik.at,Austria
Solarstrom.turbo.at GmbH,+43 2741 8060,www.spa-energietechnik.at,Austria
solarWORK Montageservice GmbH,+43 3136 55728,www.solarwork.at,Austria
Solatech Mathis GmbH,+43 5577 876030,www.mathis-solatech.com,Austria
Solavolta Energie- und Umwelttechnik GmbH,+43 5 90104640,www.sonnezustrom.at,Austria
Sonnenkraft GmbH,+43 4212 45010,www.sonnenkraft.com,Austria
JS Sonnenstrom GmbH,+43 664 1053838,www.sonnenstrom-stmk.at,Austria
Sonnenstrom Salzburg,+43 664 2820632,www.sonnenstrom-salzburg.at,Austria
Installationen Spielmann Othmar GmbH,+43 5264 5400,www.spielmann-installationen.at,Austria
Spindler & Spindler OHG,+43 3113 85550,www.spielmann-installationen.at,Austria
Springer GesmbH,+43 2945 2282,www.springer-dach.at,Austria
Expert Stadtwerke Amstetten,+43 7472 609331,www.springer-dach.at,Austria
Stadtwerke Hartberg Elektroinstallationen GmbH,+43 3332 622500,www.elektroteam.cc,Austria
Stadtwerke Kapfenberg GmbH,+43 3862 23516,www.stadtwerke-kapfenberg.at,Austria
Stadtwerke Schwaz GmbH,+43 5242 6970,www.stadtwerkeschwaz.at,Austria
Stanilux GmbH,+43 3452 722000,www.stanilux.at,Austria
Stefan Böhm,+43 2168 63700,www.boehm-stefan.at,Austria
Stegbauer Haustechnik GesmbH,+43 664 9173030,www.boehm-stefan.at,Austria
STEP - Schnell Termintreu Engagiert Partnerschaftlich GmbH,+43 3171 5600,www.boehm-stefan.at,Austria
Stepan GmbH,+43 1 8779488,www.stepan.at,Austria
Ing. Stephan Wendelin Sanitär Heizung e.U.,+43 5337 62433,www.stepan.at,Austria
Stindl Installations GmbH,+43 2282 2146,www.stindl.at,Austria
Stockinger Bau GmbH,+43 7747 20320,www.stindl.at,Austria
Strawak Energie GmbH,+43 664 2494854,strawak.at,Austria
Strobl Elektrotechnik e.U.,+43 6245 70391,https://e-strobl.at,Austria
Stromaufwärts Photovoltaik GmbH,+43 5522 48866,www.stromaufwaerts.at,Austria
Strombuam OG,+43 676 6220015,https://www.strombuam.at,Austria
StromvomDach Erl GmbH,+43 537 381069,www.stromvomdach.at,Austria
Sun.e-solution GmbH,+43 4852 64746,sune-solution.com,Austria
Sun4energy Ecopower GmbH,+43 6643 445801,sune-solution.com,Austria
Sunworld Energietechnik GmbH,+43 463 329733,www.sunworld.at,Austria
SUREnergy GmbH,+43 664 73319070,www.sunworld.at,Austria
Swimsol,+43 1967 2333,swimsol.com,Austria
Stadtwerke Ludwigsburg-Kornwestheim GmbH,+43 7141 9102187,swimsol.com,Austria
Szeiszer Peter Spenglerei-Dachdeckere,+43 3326 54052,https://www.szeiszer-dach.at,Austria
TeSolar,+43 3465 2638,www.tesolar.at,Austria
Thaller GmbH,+43 7674 62215,www.expert-thaller.at,Austria
Thomas Götschhofer Ges.m.b.H.,+43 699 17018074,gut-durchdacht.at,Austria
TP-Elektrotechnik e.U.,+43 664 4330301,https://www.tp-elektrotechnik.at,Austria
Trabos Installationen,+43 660 7531752,www.trabos-installationen.at,Austria
TRENZ Installationstechnik GmbH,+43 2287 2493,https://www.trenz-heizung.at,Austria
TyrolPV Elektrotechnik GmbH,+43 5273 60478,https://www.trenz-heizung.at,Austria
Unser Kraftwerk UK-Naturstrom GmbH,+43 463 21807323,https://www.unserkraftwerk.at,Austria
Urban GesmbH,+43 2247 2421,https://www.dachdeckerei-urban.at,Austria
Verbund AG,+43 800 210210,https://www.verbund.com,Austria
Vogl Haustechnik e.U.,+43 3578 23120,https://www.heiz.at,Austria
W. Stadler GmbH,+43 7235 63106,www.stadler.at,Austria
Wagner Dach GmbH,+43 3467 72466,https://www.wagner-dach.at,Austria
Wagner Montage GmbH,+43 664 3869727,https://www.wagner-dach.at,Austria
Waldschütz Buxbaum,+43 2984 2493,https://w-b.at,Austria
Walter Tatzer GmbH,+43 1 3339820,www.walter-tatzer.at,Austria
Wieland Ges.m.b.H.,+43 6474 2230,www.wieland.at,Austria
Wien Energie GmbH,+43 800 500800,www.wienenergie.at,Austria
Wieser + Scherer Zeller Haustechnik GmbH & Co KG,+43 6542 55555,https://www.zeller-haustechnik.at,Austria
Wimmer Elektro e.U.,+43 7247 50360,www.wimmer-elektro.at,Austria
Wimplinger Sonnenstrom GmbH,+43 7754 303340,www.sonnenstrom-gmbh.at,Austria
Windkraft Simonsfeld AG,+43 2576 3324,www.sonnenstrom-gmbh.at,Austria
Wonisch Installationen GmbH,+43 3465 2320,www.wonisch.co.at,Austria
Wöran GmbH,+43 7260 4070,www.woeran.com,Austria
Zaglmayr Gesellschaft m.b.H. & Co. KG.,+43 7711 2260,www.woeran.com,Austria
Zankl GmbH,+43 2875 8375,www.zankldach.eu,Austria
Zehetmayer Franz GesmbH,+43 1333 0666,www.spenglerei-wien.at,Austria
Zeinzinger Andreas e.U.,+43 2857 25300,nordwaldcenter.at,Austria
Ziegelwanger GmbH,+43 2982 29350,www.haustechnik-ziegelwanger.at,Austria
Ziller Elektrotechnik,+43 664 4704723,https://www.ziller-elektrotechnik.at,Austria
Zöchling GmbH,+43 4242 36539,https://www.ziller-elektrotechnik.at,Austria
Zweimüller – Haustechnik GesmbH,+43 7762 3537,www.zweimueller-ht.at,Austria
123 Solar SRL,+32 4 2870218,www.123-solar.be,Belgium
A 2 TOIT,+32 497 443428,www.a2toit.be,Belgium
A.G. Dakwerken,+32 13 776266,www.agdakwerken.be,Belgium
ABP Belux SPRLU,+32 67 444725,www.abp-belux.be,Belgium
Absytech,+32 495 299494,www.absytechenergie.be,Belgium
Aclisol,+32 14 310031,www.aclisol.be,Belgium
ACR Energie bvba,+32 50 281128,www.acr-energie.be,Belgium
ACS Energie,+32 89 767876,www.acse.be,Belgium
Adec Electro Verwarming,+32 478 249052,www.adecelectro.be,Belgium
ADR Technics,+32 3 2335761,www.adecelectro.be,Belgium
Advenso BVBA,+32 50 703433,https://www.advenso.be,Belgium
ADW-Technics,+32 9 3284535,www.adw-technics.be,Belgium
Aendekerk bvba,+32 8946 8400,www.aendekerk.be,Belgium
All Energy Solutions,+32 477 827990,www.aendekerk.be,Belgium
AETEC Bvba,+32 14 717892,www.aetec.be,Belgium
Algemene Electriciteitswerken Karel Kalders,+32 89 865335,www.aewkalders.be,Belgium
AF Energy,+32 484 687006,www.aewkalders.be,Belgium
AFES bvba,+32 55 496681,www.afes.be,Belgium
AG Technics BVBA,+32 473 416322,https://www.agtechnics.be,Belgium
Agile Technics,+32 477 368907,https://agiletechnics.be,Belgium
Airbo,+32 473 765 434,airbo.be,Belgium
Alfasun / Alfacool,+32 54 245481,www.alfasun.be,Belgium
Algemene Dakwerken De Cock bvba,+32 15 345679,https://www.algemenedakwerkendecock.be,Belgium
Alkatech,+32 486 115923,www.alkatech.be,Belgium
All Solar,+32 477 664813,www.allsolar.be,Belgium
Alrasol BVBA,+32 12 458722,www.alrasol.be,Belgium
Alter Energies Sprl,+32 63 402744,www.alter-energies.be,Belgium
AlterElectra BVBA,+32 9 2203561,www.alterelectra.be,Belgium
Alyatech bvba,+32 477 677704,https://www.alyatech.be,Belgium
Ameel Koeltechniek Bvba,+32 490 443000,www.ameel-technics.be,Belgium
AMG Belgium,+32 87 440044,www.amgbelgium.be,Belgium
APS SRPL,+32 4371 9442,www.aps-liege.com,Belgium
Aquation SA,+32 4225 8318,www.aquation.be,Belgium
AR&B Solar Bvba,+32 51 699447,www.aquation.be,Belgium
Aralt Solar Expertise,+32 800 62679,https://www.aralt.biz,Belgium
Ardenne Energie Sprl,+32 495 241738,www.ardenne-energie.com,Belgium
Arkwabo,+32 496 897372,www.arkwabo.be,Belgium
ARS-Dakwerken,+32 496 638090,ars-dakrenovatie.be,Belgium
Aservis,+32 477 240906,https://www.aservis.be,Belgium
Aspeslagh,+32 9 3864936,https://www.aspeslaghbvba.be,Belgium
Atom Solar,+32 49 4383088,atom-solar.be,Belgium
ATS bvba,+32 1136 2020,www.atsbvba.be,Belgium
Attentus,+32 38 898489,www.attentus.be,Belgium
Avci Elektrotechniek,+32 489 858886,avci-elektro.be,Belgium
AVDE,+32 800 30123,www.avde.be,Belgium
Avipko,+32 3 2899360,www.avipko.be,Belgium
AVS Service,+32 14 715620,https://www.avsservice.be,Belgium
Axenergy Sprl,+32 479 8633758,www.axenergy.be,Belgium
B&M Invest,+32 494 060775,https://bnminvest.be,Belgium
Bae Solutions,+32 499 848687,https://bnminvest.be,Belgium
Balti Solar,+32 56 123333,baltisolar.be,Belgium
Bande Chauffage S.A.,+32 84 221436,www.bandechauffage.be,Belgium
Barco-energy,+32 471 854040,www.barco-energy.be,Belgium
Barisco Energy,+32 485 465801,https://barisco.be,Belgium
Bart Meers Energietechniek Bvba,+32 89 416840,www.bartmeers.be,Belgium
Bart Van Hauwermeiren,+32 496 416111,www.bartvanhauwermeiren.be,Belgium
Bart Vansteelandt,+32 494 656855,www.bartvansteelandt.be,Belgium
Bastiaens bvba,+32 11 551397,www.bastiaensbvba.be,Belgium
Batimont Zonnepanelen,+32 56 600600,https://www.batimont.be/nl,Belgium
Batisol BVBA,+32 3 4823008,www.batisol.be,Belgium
Bay-Tec BVBA,+32 4 88613792,www.bay-tec.be,Belgium
BB Works,+32 488 579271,www.bb-works.net,Belgium
Be Ecolog,+32 4 93949206,beecolog.be,Belgium
BE Sanitair BVBA,+32 14 553582,www.be-sanitair.be,Belgium
Be-Energy,+32 495 187072,www.be-energy.be,Belgium
Belgian Solar NV,+32 3 3024790,www.be-energy.be,Belgium
Belicom,+32 479 458987,www.belicom.be,Belgium
Belivert,+32 50 250240,https://www.belivert.be,Belgium
Bellinkx,+32 477 396497,www.bellinkx.com,Belgium
Belsanico,+32 52 358707,www.belsanico.be,Belgium
Belsun,+32 492 858332,https://www.belsun.be,Belgium
Ben-tec,+32 9 2511707,https://www.ben-tec.be,Belgium
Bernaerts Technics,+32 3 6643432,https://www.ben-tec.be,Belgium
Berrentec BVBA,+32 11 756145,www.berrentec.be,Belgium
Bertrand Darimont Sprl,+32 87 232772,www.bertrand-darimont.be,Belgium
Belgian Energy Systems BVBA,+32 51 228203,www.bes.be,Belgium
Bievelez Sprl,+32 477 476605,www.bievelez-sprl.be,Belgium
Biolux,+32 477 357667,https://biolux-photovoltaique.be,Belgium
BK Elec,+32 497 425349,www.bkelec.be,Belgium
BL-energy,+32 478 966215,bl-energy.be,Belgium
Blu Sky,+32 473 558378,blu-sky.be,Belgium
BNS Technics,+32 14 242510,www.bnstechnics.be,Belgium
Boag Sprl,+32 498 464032,www.sprlboag.be,Belgium
Bollen Energy Bvba,+32 11 369369,www.bollen-energy.be,Belgium
Bonfond Energy,+32 19 330133,www.bonfond-energy.be,Belgium
Boon Solar,+32 473 232466,www.bonfond-energy.be,Belgium
Boone Hydro-elektrotechniek b.v.b.a,+32 475 435681,www.boonehydro-elektro.be,Belgium
Borgo Elektriciteit,+32 478 397663,https://www.borgo-elektriciteit.be,Belgium
Bovema International N.V.,+32 14 286868,www.bovema.be,Belgium
Blue Power Synergy,+32 494 335826,www.bovema.be,Belgium
Brabo Technics,+32 3 2478912,www.brabotechnics.be,Belgium
Braeckman Geert bvba,+32 9279 7557,geertbraeckman.be,Belgium
Brever,+32 2 3105101,www.brever.be,Belgium
Brussels Energy,+32 2 3190299,brusselsenergy.be,Belgium
Bruyland Technics bvba,+32 57 469851,www.bruyland.com,Belgium
BS-Zonnepanele comm. v,+32 486 685702,www.bs-zonnepanelen.com,Belgium
BSX Bvba,+32 11 360344,bsxbv.be,Belgium
Building Energy NV,+32 476 985194,www.buildingenergy.be,Belgium
Bycostream,+32 56 426221,www.bycostream.be,Belgium
Carl Pieters,+32 496 509559,www.carlpieters.be,Belgium
Carodel Sprl,+32 81 855454,www.carodel.net,Belgium
CB Energy SPRL,+32 71 306811,www.cb-energy.be,Belgium
CD Concept Solar,+32 4947 02495,www.cdconceptsolar.be,Belgium
CDES Services Bvba,+32 89 213066,www.cdesservices.be,Belgium
Chauff'et Vous Sprl,+32 4 3847746,www.chauffetvous.be,Belgium
Chauffage Closset,+32 498 231628,www.chauffage-closset.be,Belgium
Christal-Energies,+32 64 650653,www.christal-energies.be,Belgium
Christiaens Industriële Elektriciteit,+32 56 662133,www.christiaens-bvba.be,Belgium
CI.Belgium,+32 2 3661740,www.cibelgium.be,Belgium
City Energy BVBA,+32 52 554891,www.cityenergy.be,Belgium
Climamaster,+32 488 481422,www.cityenergy.be,Belgium
ClimaSan Bvba,+32 485 352202,www.climasan.be,Belgium
ClimaSun,+32 496 440678,www.climasun.be,Belgium
CLS Service,+32 477 905859,https://clsservice.be,Belgium
Consolar Belgium SA,+32 4 2347474,www.consolar.be,Belgium
Cool & Pool Technics,+32 495 185540,www.consolar.be,Belgium
Coolline-Solar bv,+32 475 893586,www.coolline.be,Belgium
Coppens Ecotech Sprl,+32 496 519045,https://www.coppensecotech.com,Belgium
Corswarem Group,+32 1226 0170,corswarem.eu,Belgium
Coussens Joost,+32 56 668810,coussensjoost-verwarming.be,Belgium
Coversanit sprl,+32 484 325919,www.coversanit.be,Belgium
Cozie,+32 800 65065,https://www.cozie.be,Belgium
Clean Power Company,+32 15 636016,www.c-p-c.be,Belgium
Crystal Solar Plus Group,+32 486 345070,cspgroup.be,Belgium
CS Technics BV,+32 478 618484,cspgroup.be,Belgium
CV Van Beeck,+32 497 817169,www.cvvanbeeck.be,Belgium
D-A-K,+32 494 305088,www.d-a-k.be,Belgium
DA Technics,+32 11 252791,https://mijngroeneenergie.be,Belgium
Dak & Co BVBA,+32 484 114680,https://mijngroeneenergie.be,Belgium
Dak- en Gevelrenovatie VDS,+32 471 505736,https://vdsdak-gevelrenovatie.be,Belgium
Dakprofiel Moens,+32 16 850377,www.dakprofielmoens.be,Belgium
BVBA Dakwerken Crul Jean-Paul,+32 5666 3874,dakwerkencrul.be,Belgium
Dakwerken Dak Plus,+32 1455 6643,www.dakplus.be,Belgium
Dakwerken Gerard BVBA,+32 1660 0239,www.dakwerken-gerard.be,Belgium
Dakwerken Hermans Ivo BVBA,+32 52 340043,www.dakwerkenivohermans.be,Belgium
Dakwerken Maes,+32 52 336218,www.maesdakwerken.be,Belgium
Dakwerken Van Riet,+32 492 807105,https://www.dakwerkenvanriet.be,Belgium
Dankwerken Delannoy,+32 456 242651,www.dakwerkendelannoy.be,Belgium
Daraz Elektro bvba,+32 494 250859,www.daraz.be,Belgium
Dauvister SA,+32 87 269406,www.dauvister.com,Belgium
DB&W Technics,+32 495 362699,https://www.dbwtech.be,Belgium
DC Technics bvba,+32 498 458429,www.dctechnics.be,Belgium
De Brauwer Elektro,+32 56 778825,www.debrauwer-elektro.be,Belgium
De Bruycker Gebroeders bvba,+32 9 3841268,debruyckergebroedersbvba.be,Belgium
De Groene Leeuw bvba,+32 487 471523,www.degroeneleeuw.be,Belgium
De Jaeger Alain,+32 475 514663,dakwerken-dejaeger.be,Belgium
De Look SPRL,+32 475 207269,www.delook.be,Belgium
De Mars Danny BVBA,+32 2 2697851,www.demarsdanny.be,Belgium
De Mey s.p.r.l.,+32 4 3773601,www.demeysprl.net,Belgium
De Rycke & Zonen,+32 9 3842364,www.derycke-zonen.be,Belgium
De Smedt bvba,+32 497 455474,www.desmedtbvba.com,Belgium
De Vroe Groep,+32 9230 8283,www.devroegroep.be,Belgium
De Zonnebroeders,+32 3 3313369,www.zonnebroeders.be,Belgium
De ZonneGod,+32 494 692276,https://www.dezonnegod.com,Belgium
Deba Elektriciteitswerken,+32 496 128624,www.debaroeselare.be,Belgium
Debel Elec Sprl,+32 475 352779,https://www.debelelec.be,Belgium
Debuisson Thierry,+32 472 861806,www.dakwerkendebuisson.be,Belgium
Decancq Group,+32 51 308320,www.decancq.be,Belgium
Decat,+32 51 555001,www.decat.be,Belgium
DEDA Projects,+32 495 426705,www.dedaprojects.be,Belgium
Dedecker Installaties,+32 57 200037,www.dedeckerinstallaties.be,Belgium
Deliso Sprl,+32 470 043660,www.deliso.be,Belgium
Delnate & Fils,+32 5633 7252,www.chauffage-delnatte.be,Belgium
Delta Luminance Sprl,+32 68 287409,www.deltaluminance.be,Belgium
Delta Technics BVBA,+32 495 513239,www.deltaluminance.be,Belgium
Demoitié sa BDH,+32 8643 3724,https://www.entreprise-demoitie.be,Belgium
Demtec Services,+32 11 260367,www.demtecservices.be,Belgium
Denolf Electro and Solar,+32 51 613909,www.delecsol.be,Belgium
Derbigum,+32 2 3348700,www.derbigum.be,Belgium
Derouck Elektro,+32 478 831088,www.derouckelektro.be,Belgium
Desmyter Electro en Installatie Bvba,+32 51 581008,www.electro-installatie.be,Belgium
DeVaPower BVBA,+32 485 671151,www.electro-installatie.be,Belgium
Dewulf Techniek Bvba,+32 476 722196,www.dewulf-techniek.be,Belgium
DGS Solar,+32 800 99786,www.dgs-solar.be,Belgium
DHome Systems BVBA,+32 478 506524,www.dgs-solar.be,Belgium
Di Palma Sprl,+32 71 474225,www.dipalma.be,Belgium
Dimitri Gryson BVBA,+32 57 205501,www.dimitrigryson.be,Belgium
DM Solar BVBA,+32 56 890091,www.dmsolar.be,Belgium
DM Solutions gcv,+32 498 100483,www.dm-solutions.be,Belgium
DMS Installatie,+32 475 765052,https://dmsinstallatie.be,Belgium
Dominique Jaumotte,+32 473 263793,www.jaumottedominique.be,Belgium
DomoTecno BVBA,+32 496 426317,www.domotecno.be,Belgium
Domus,+32 10 812054,www.domus.be,Belgium
Doumen & Kellens Bvba,+32 496 298874,https://www.dkdomotica.be,Belgium
DP Projects,+32 496 501907,www.dpprojects.be,Belgium
D'Heedene Solar BVBA,+32 16 813158,www.dsolar.be,Belgium
Duonooduitgang,+32 478 786811,www.duonooduitgang.be,Belgium
Dural Bouwgroep,+32 3 3037499,www.duonooduitgang.be,Belgium
Durasun,+32 13 444353,www.durasun.be,Belgium
Durieux Alain BVBA,+32 661 586223,https://dakwerkendurieux.be,Belgium
Durital Thierry Talbot,+32 497 702133,www.barvaux-toitures.be,Belgium
DW Technics,+32 471 867405,www.dw-technics.be,Belgium
DakWerken Feys,+32 472 743546,www.dw-f.be,Belgium
E-advies BVBA,+32 9 3244250,www.e-advies.org,Belgium
E-Cocoon SPRL,+32 496 692710,www.e-cocoon.be,Belgium
E-Tec Duurzame Energie,+32 474 732195,www.e-cocoon.be,Belgium
E-Technics BVBA,+32 495 109176,www.e-technics.be,Belgium
E.M.G Construct Sprl,+32 6 4555610,www.emgconstruct.be,Belgium
E.T.L. Algemene Elektriciteitswerken,+32 11 341326,www.etl-elektro.be,Belgium
E&S Solar,+32 12 217075,www.es-solar.be,Belgium
Easykit Slimme Zelfbouw,+32 16 721528,easykit.be,Belgium
Easytec,+32 496 035800,www.easytec.be,Belgium
EBC bvba,+32 1366 6806,www.ebc-bvba.be,Belgium
EBeco,+32 488 244243,www.ebeco.be,Belgium
EBK,+32 46 8183324,ebkbvba.be,Belgium
Eco Elec Belgium,+32 499 600986,www.ecoelecbelgium.com,Belgium
Eco Team Solar Panels & Airconditioning,+32 470 777801,www.eco-team-maasmechelen.be,Belgium
Eco Technics,+32 3 2908317,www.ecotechnics.be,Belgium
Eco-Max BVBA,+32 800 19888,www.eco-max.be,Belgium
Eco-Techniek bvba,+32 472 840401,www.eco-techniek.be,Belgium
Ecovolution BVBA,+32 475 645131,www.eco-techniek.be,Belgium
Ecochauffage Sprl,+32 64 676067,www.ecochauffage.be,Belgium
Ecocool Technics,+32 473 852597,www.ecochauffage.be,Belgium
Ecodomo bvba,+32 56 217607,www.ecodomo.be,Belgium
EcoFinity bvba,+32 55 495865,www.ecofinity.eu,Belgium
Ecofusion,+32 4 491011,www.ecofusion.be,Belgium
Ecolep Bvba,+32 473 333024,ecolep.be,Belgium
Ecomatix-feys,+32 50 390449,www.ecomatix-feys.be,Belgium
Ecopartner,+32 3 8871265,www.ecopartner.be,Belgium
Ecopuur nv,+32 9 2980408,www.ecopuur.be,Belgium
Ecosol+,+32 11 791487,www.ecosolplus.be,Belgium
Ecosystec SPRL,+32 800 85610,www.ecosystec.be,Belgium
Ecotec Systems,+32 475 772621,www.ecotecsystems.be,Belgium
Ecotech BVBA,+32 474 379083,www.ecotech.be,Belgium
Ecotech Electrotechniek,+32 497 409157,www.ecotech-plasmans.be,Belgium
Ecotech Waas,+32 9 3492087,www.ecotechwaas.be,Belgium
Ecovisie Belgium bvba,+32 3 2963815,www.ecovisie.be,Belgium
EDA General Electricity Belgium,+32 9 3963430,www.edageneralelec.com,Belgium
Electric Design Solar Systems,+32 56 506100,www.edss.be,Belgium
Egcollignon Group,+32 800 99862,https://www.egcollignongroup.be,Belgium
EGS Projects,+32 89 385867,egsprojects.be,Belgium
EHCS BVBA,+32 471 272025,www.ehcs-mechelen.be,Belgium
Ekotermika Sprl,+32 486 514890,www.ekotermika.be,Belgium
Elcubi BVBA,+32 11 414702,www.elcubi.be,Belgium
Eldema bvba,+32 5641 9328,www.eldema.be,Belgium
Electricity Innovation Technology sprl,+32 64 730383,www.elite-electricity.be,Belgium
Electro Fagne,+32 60 378797,electrofagne.be,Belgium
Electro Gevaert Gabriel,+32 51 241798,www.electrogevaert.be,Belgium
Electro Le Jeune,+32 89 503350,www.electro-le-jeune.be,Belgium
Electro Light BVBA,+32 495 244874,www.electrolight.be,Belgium
Electro Rouhard Sprl,+32 4 2595592,www.electrorouhard.be,Belgium
Electro Technics Bilzen Bvba,+32 89 751956,www.electro-technics.be,Belgium
Electro Techniek Valon,+32 476 470433,www.valon.be,Belgium
Electro VDS,+32 477 666959,www.electrovds.be,Belgium
Electro Verhelst,+32 51 568811,www.electroverhelst.be,Belgium
Electro Walter,+32 89 303042,www.electro-walter.be,Belgium
Electro-KGsun,+32 496 143834,www.kgsun.be,Belgium
Electro-Klima,+32 474 224615,www.kgsun.be,Belgium
Electrolyse Bvba,+32 56 518822,www.electrolyse.be,Belgium
Electronick,+32 498 210756,https://www.electronick.be,Belgium
Electrood BVBA,+32 474 238367,www.electrood.be,Belgium
Elektriciteitswerken Erik De Vocht Bvba,+32 498 142129,www.elektriciteitswerkenerikdevocht.be,Belgium
Elektriciteitswerken LJ,+32 494 612244,www.ewlj.be,Belgium
Elektrix bvba,+32 475 368570,elektrix.be,Belgium
Elektro Borgs Bvba,+32 496 870956,www.elektriciteitswerken-borgs.be,Belgium
Elektro Bouckhout,+32 476 422496,www.elektro-bouckhout.be,Belgium
Elektro Delwiche,+32 476 902678,www.elektriciteitswerkendelwiche.be,Belgium
Elektro MAVA,+32 494 729195,https://www.elektromava.be,Belgium
Elektro Van De Sande NV,+32 11 222929,www.elv.be,Belgium
Elektro Verschuere NV,+32 56 712917,www.elektro-verschuere.be,Belgium
Elektro-Cox Bvba,+32 2 3054599,elektro-cox.be,Belgium
Elektro-Gantois bvba,+32 495 232447,www.elektrogantois.be,Belgium
Elektroline Bvba,+32 13 327350,www.elektroline.be,Belgium
Bvba Elektrotechniek Pieter De Beule,+32 498 664755,www.elektroline.be,Belgium
Eleverco,+32 477 880300,www.eleverco.be,Belgium
Elextra,+32 476 546365,www.elextra.be,Belgium
Elias Techniek bv,+32 478 333910,https://www.eliastechniek.be,Belgium
Elny bvba,+32 3 4640608,elny.be,Belgium
Elparo,+32 11 806371,www.elparo.be,Belgium
Eltex,+32 51 253167,www.eltex.be,Belgium
Elvetico BVBA,+32 15 554144,www.elvetico.be,Belgium
Emiel bvba,+32 3 6440112,www.emielbvba.be,Belgium
Emsolar,+32 475 400145,www.emsolar.be,Belgium
Eneco Belgium nv,+32 2 2744800,eneco.be,Belgium
EneRa sprl,+32 478203022,www.enera.eu,Belgium
Enerdeal NV,+32 2 4162050,enerdeal.com,Belgium
Energie & Warmtetechniek,+32 477 930803,www.energie-warmtetechniek.be,Belgium
Energie De Kempen,+32 14 746278,www.energiedekempen.be,Belgium
ENERGIE + bvba,+32 496 254254,https://energieplusbvba.be,Belgium
Energie Voor Morgen,+32 474 850861,https://www.energievoormorgen.be,Belgium
Energie-Rénovations,+32 485 459457,www.energie-renovations.be,Belgium
Energiecenter Geuns,+32 11 634532,https://www.energiecenter.be,Belgium
Energieconcepten,+32 14 883500,www.energieconcepten.be,Belgium
Energiecontrol BVBA,+32 11 536398,www.energiecontrol.be,Belgium
Energiek,+32 495 501669,www.energiek.be,Belgium
Energiesystemen STECA,+32 11 347760,https://www.receg.eu,Belgium
Energietech BVBA,+32 16 896558,www.energietech.be,Belgium
Energius NV,+32 14 622868,www.energius.be,Belgium
Energreen S.A.,+32 10 451373,www.energreen.be,Belgium
Energy Initiative,+32 2 3045576,www.energyinitiative.be,Belgium
Energy King,+32 16 416210,https://energyking.be,Belgium
Energy Village Groupe,+32 65 691560,www.energy-village.be,Belgium
EB Group BV,+32 2 5884777,https://www.energy-builders.com,Belgium
EnergyVision,+32 9 3838296,https://www.energyvision.be,Belgium
Enersol SPRL,+32 87 686822,www.enersol.be,Belgium
Enertec,+32 69 781669,www.enertec.be,Belgium
ENGIE Fabricom,+32 2 3703111,https://www.engie-fabricom.com,Belgium
Enis-Kestens,+32 499 227322,www.enis-kestensbvba.be,Belgium
Ensys,+32 3 2913320,www.ensys.be,Belgium
Entreprise Van Baelen Sprl,+32 81 635234,www.vanbaelen-toitures.be,Belgium
Entrix BV,+32 476 024895,www.entrix.be,Belgium
Envice Bvba,+32 475 349022,www.envice.be,Belgium
Eoluz NV,+32 3 3170600,www.eoluz.be,Belgium
Electro Peter Aerts bvba,+32 89 244650,www.epa-solar.be,Belgium
epTechnieken bv,+32 14 657983,https://www.eptechnieken.be,Belgium
Erdo Dakwerken bvba,+32 9 3553268,www.erdo.be,Belgium
Erro Heating,+32 89 852090,https://erroheating.be,Belgium
Erwin Schrevens BVBA,+32 471 569379,www.schrevens.eu,Belgium
ESD bv,+32 477 363656,www.esdbvba.com,Belgium
ESE Group,+32 58 593950,www.esegroup.be,Belgium
Electrical Systems Palmans,+32 12 213563,www.electricalsystems.be,Belgium
ESV-Blomme,+32 496 034583,esv-blomme.be,Belgium
Adam Ch SPRL,+32 82 712866,etsadam.be,Belgium
Ets Briatte S.P.R.L.,+32 68 449011,www.briatte.be,Belgium
ETS Christian Laurent Sprl,+32 81 211353,www.chauffage-laurent.be,Belgium
Ets Debrulle SPRL,+32 64 369119,www.debrulle.com,Belgium
Ets Derenne Thomas,+32 478 642858,www.derennethomas.be,Belgium
ETS Schelhaever,+32 484 941141,www.energies-renouvelables-schel.be,Belgium
EVC,+32 14 842456,www.evc-elektriciteitswerken.be,Belgium
Elektriciteitswerken Evo Bvba,+32 473 593348,www.evobvba.be,Belgium
Evocells,+32 86 388138,https://evocells.be,Belgium
EVS Systems,+32 3 2966088,www.evssystems.be,Belgium
EWM Bvba,+32 498 797461,www.ewmtechnics.be,Belgium
Earth Wind & Solar Energy bvba,+32 230 60300﻿,www.ewsenergy.be,Belgium
EZenergy,+32 485 547411,ezenergy.eu,Belgium
Fabeleco Sprl,+32 474 322166,www.fabeleco.be,Belgium
Felvo bvba,+32 498 501456,https://felvo.be,Belgium
Fimexsol Sprl,+32 495 386319,fimexsol.be,Belgium
Fin Energy s.p.r.l.,+32 474 877043,www.finenergy.be,Belgium
Finale 24,+32 87 352224,www.finale24.com,Belgium
FLP-technics,+32 475 695343,www.flp-technics.be,Belgium
Franc Thierry Sprl,+32 68 449990,www.franc-thierry.com,Belgium
Frank Develter,+32 51 772043,www.frankdevelter.be,Belgium
Fraselle et Fils Sprl,+32 83 612639,www.fraselleetfils.be,Belgium
Frigo Techniek Bvba,+32 3 6516843,www.fraselleetfils.be,Belgium
Frisch Dak- en Timmerwerken,+32 486 831023,www.frischdakwerken.be,Belgium
FS Technics,+32 84 315273,www.fstechnics.be,Belgium
FT-Technics,+32 495 834466,www.ft-technics.be,Belgium
Full Sun,+32 475 803667,fullsun.be,Belgium
Futech BvBa,+32 800 82060,www.futech.be,Belgium
Galileo Energy,+32 488 364985,www.galileo-energy.be,Belgium
GD-Energy BVBA,+32 471 806086,gd-energy.be,Belgium
Gebroeders Blindeman,+32 52 355345,https://blindeman.zuinigerverwarmen.be,Belgium
Geert Roekeloos,+32 475 817090,www.elektriciteitswerken-roekeloos.be,Belgium
Generate Bv,+32 16 910314,www.generatesolar.be,Belgium
Gerelec SA,+32 4 3449001,www.gerelec.com,Belgium
GG Technics BVBA,+32 485 585162,www.gerelec.com,Belgium
Gleco,+32 485 673638,gleco.be,Belgium
Global Energy Solution Sprl,+32 475 835277,www.globalnrj.be,Belgium
GM-Projects,+32 472 431401,www.gm-projects.be,Belgium
Go-Solar NV,+32 52 691652,https://www.go-solar.be,Belgium
Goossens Electro bvba,+32 15 221445,https://www.go-solar.be,Belgium
Green S.A.,+32 10 247101,www.green.be,Belgium
Green Energy 4 Seasons,+32 800 32232,www.greenenergy4seasons.be,Belgium
Green House Solutions,+32 4 78225268,www.greenhousesolutions.be,Belgium
Green Solutions,+32 11 967099,www.solarlec.be,Belgium
Green Technics,+32 52 526266,www.greentechnics.be,Belgium
Green Technologies Bvba,+32 495 579138,www.greentechnologies.be,Belgium
Green-Team,+32 475 318679,www.green-team.be,Belgium
Greenpulse,,www.greenpulse.eu,Belgium
Groenehuizen,+32 474 981004,groenehuizen.be,Belgium
Group Solar,+32 9 2231009,groupsolar.be,Belgium
BVBA Group T.A.T.,+32 469 448864,www.grouptat.be,Belgium
GTS Technics BVBA,+32 52 224620,www.grouptat.be,Belgium
Heat-it BV,+32 479 937228,https://heat-it.info,Belgium
Heinen S.A.,+32 87 591010,www.heinen.eu,Belgium
Helix Solar,+32 81 586511,www.heinen.eu,Belgium
Hendrik De Nijs Bvba,+32 474 567878,https://hendrikdenijs.be,Belgium
Heylen,+32 71 744161,https://hendrikdenijs.be,Belgium
HM Technics BV,+32 471 119185,www.hmtechnics.be,Belgium
Hocetec Sprl,+32 65 317300,www.hocetec.be,Belgium
Hofman Electronics,+32 493 466862,www.hofmanelectronics.be,Belgium
Houssa Cedric Sprl,+32 83 339050,www.elec-houssa.be,Belgium
HS Technics,+32 471 037406,www.hstechnics.be,Belgium
Hs-Group bvba,+32 498 648814,www.hsgroup.be,Belgium
Huby Chauffage s.p.r.l.,+32 80 679032,www.huby-chauffage.com,Belgium
Huyghe Technics,+32 485 304458,www.huyghe-technics.be,Belgium
IBA Technics,+32 16 482254,www.ibatechnics.be,Belgium
Iduna Solutions BVBA,+32 494 922483,www.iduna-solutions.be,Belgium
iHOUSE BV,+32 14 552019,www.ihouse.be,Belgium
Ikaros Solar nv,+32 3 6416480,www.ikaros-solar.eu,Belgium
International Montage Maintenance,+32 2 7320330,www.ikaros-solar.eu,Belgium
Labis Ingelec,+32 56 512285,www.ingelec.be,Belgium
Insaver-Luminus,+32 11 812088,insaver.be,Belgium
Install Flow,+32 4 2295530,installflow.com,Belgium
Installatiebedrijf Maes,+32 495 532599,installatiebedrijfmaes.be,Belgium
Installatiebedrijf van den Berg,+32 3 3157531,www.vdberg.be,Belgium
Installatiebedrijf Verheyden,+32 3 6672867,www.vdberg.be,Belgium
Intelligent Wonen,+32 51 724490,www.intelligentwonen.be,Belgium
Intellisol NV,+32 89 355300,intellisol.be,Belgium
Intérieur et Chaleur,+32 71 331298,www.interieur-chaleur.be,Belgium
Iso-Bouw,+32 9 2312801,https://www.iso-bouw.be,Belgium
Isodakpro,+32 9 3104788,www.isodakpro.be,Belgium
IZEN Energy Systems,+32 14 558319,www.izen.eu,Belgium
Johan Demey,+32 471 766229,www.jdemey.be,Belgium
J&W Dakwerken en Zonne-energie,+32 491 978304,www.jdemey.be,Belgium
Jany Gofflot S.p.r.l,+32 61 279295,www.janygofflot.be,Belgium
Algemene Elektriciteitswerken Jasper Van Assche,+32 477 474154,https://elektriciteit-jasper.be,Belgium
Jean-Luc Nix Sprl,+32 496 564967,https://www.toiture-nix.be,Belgium
Jeffrey Groeninckx Bvba,+32 495 180808,jeffreygroeninckx.be,Belgium
Jery Remy sprl,+32 4 2752045,www.jery-remy.be,Belgium
JJ Burnotte,+32 804 10040,www.jjburnotte.be,Belgium
JL Solutions bvba,+32 477 519523,www.jl-solutions.be,Belgium
JL Systems,+32 472 492040,www.jlonline.be,Belgium
Joassin-Davidts Sprl,+32  4 3423495,www.joassin.be,Belgium
Johan Algoet Bvba,+32 55 302491,www.algoet-bvba.be,Belgium
GCV JoKu.Technics,+32 475 318269,https://jokutechnics.be,Belgium
Joma Bvba,+32 478 450589,www.bvbajoma.be,Belgium
JP Energy bvba,+32 475 608023,www.jpenergy.be,Belgium
JRB Technics,+32 494 594917,www.jpenergy.be,Belgium
JS Technics,+32 474 128675,www.jpenergy.be,Belgium
Judong Bvba,+32 474 611519,www.judong.be,Belgium
JV Dakwerken Bvba,+32 477 467161,www.jv-dakwerken.be,Belgium
K.L. Electro Bvba,+32 479 981744,kl-electro.be,Belgium
Karel Quintyn,+32 498 119918,https://karelquintyn.be,Belgium
Kaspers Technics BVBA,+32 11 480200,https://karelquintyn.be,Belgium
KDI Industries bvba,+32 496 890174,https://www.kdi-industries.be,Belgium
Kevin Beeckman,+32 2 7931010,www.kevinbeeckman.be,Belgium
Kevin Scheerlinck,+32 472 334614,www.kevinscheerlinck.be,Belgium
Kijzer,+32 3 8084646,www.kijzer.be,Belgium
Kilowatt-Solar Bvba,+32 9 3620003,www.kilowattsolar.eu,Belgium
Klimatisatie Kevin,+32 485 057246,www.ikwilairco.com,Belgium
Klima-technics bvba,+32 498 101837,www.klimatechnics.be,Belgium
Klimaphil,+32 474 430615,www.klimaphil.be,Belgium
Klimatechnics,+32 14 420068,www.klimat.be,Belgium
Klinkenberg SA,+32 4 3660031,klinkenberg.be,Belgium
Kreni Solar,+32 2 3430092,www.krenisolar.be,Belgium
Kristof Devalckenaere bvba,+32 473 588788,https://www.devalckenaere.be,Belgium
Kryptonite BVBA,+32 3827 1320,www.kryptonite-bvba.be,Belgium
Kti-Wti BVBA,+32 3 3843297,www.kti-wti.be,Belgium
KVE Systems,+32 14 700596,www.kve-systems.be,Belgium
L-Solar BVBA,+32 495 372992,www.l-solar.be,Belgium
L.B.P.V.-Elec Sprl,+32 4 2392436,www.lbpv-elec.be,Belgium
L'embellie Sprl,+32 497 726470,www.lembellie.eu,Belgium
L&L Projects bvba,+32 474 835278,www.ld-elektro.be,Belgium
L&S Elektro,+32 473 666705,www.lselektro.be,Belgium
Lamont Energietechniek,+32 498 682558,https://www.lamontfrederik.be,Belgium
LD Elektro,+32 475 294638,www.ldelektro.be,Belgium
Le Compagnon Du Toit Sprl,+32 477 333867,https://www.lecompagnondutoit.be,Belgium
Lemmens CV,+32 1467 8758,www.lemmens-cv.be,Belgium
Lenartz SA,+32 87 687328,www.lenartz.be,Belgium
Leonard-Lemaitre,+32 6360 0405,www.leonard-lemaitre.be,Belgium
Les Couvreurs Réunis Sprl,+32 61 550040,www.lescouvreursreunis.be,Belgium
LHE bvba,+32 11 584610,www.elektriciteitswerkenlavigne.be,Belgium
Limbotech,+32 486 960444,https://limbotech.be,Belgium
Linea Trovata Suntec NV,+32 9 3365364,www.lineatrovata.com,Belgium
Marc Lejeuné Rénovation,+32 495 904922,www.lm-renovation.be,Belgium
Low Energy Products,+32 13 444187,www.lowenergyproducts.be,Belgium
Lambrechts Elektriciteitswerken,+32 484 855350,www.lowenergyproducts.be,Belgium
Luc De Kock SA,+32 2 6570250,www.lucdekock.be,Belgium
M.Chavet Sprl,+32 80 684775,www.mchavetsprl.be,Belgium
M3 Energie,+32 493 140819,www.m3-energie.be,Belgium
Madi Toiture,+32 484 507480,https://maditoiture.be,Belgium
Maes bvba,+32 89 774664,www.maes-totaalprojecten.be,Belgium
Maes Verwarming bvba,+32 496 175001,www.maes-verwarming.be,Belgium
Maison Eko Huis,+32 495 333233,users.skynet.be/MaisonEkoHuis,Belgium
Maison Istace s.a.,+32 61 533112,www.maisonistace.be,Belgium
Matheco,+32 11 340840,www.matheco.be,Belgium
Mats Heyse,+32 494 059967,https://matsheyse.be,Belgium
Matthys & Zonen,+32 9 3664373,www.matthys-en-zoon.be,Belgium
Algemene Dakwerken Matthys en Zn,+32 473 491077,www.matthys-en-zoon.be,Belgium
Maxus BV,+32 473 505335,www.maxus.be,Belgium
MC Solar SA,+32 4 3441944,mc-solar.be,Belgium
MDSolar BVBA,+32 475 798318,https://www.mdsolar.eu,Belgium
ME Technics,+32 50 820607,metechnics.be,Belgium
Mebutec BVBA,+32 495 271496,www.mebutec.be,Belgium
Meganelec SA,+32 71 773000,www.meganelec.be,Belgium
Metasetech,+32 71 776836,www.metasetech.be,Belgium
Mi-Com Energy,+32 486 601932,mi-com.be,Belgium
Michel & Co,+32 479 168521,www.toituresmicheldakwerken.be,Belgium
Michiels Dakwerken,+32 477 951224,www.michiels-dakwerken.be,Belgium
Mini Energietechniek Bvba,+32 9 3808850,www.mini-energietechniek.be,Belgium
Ministry of Solar™ Bvba,+32 50 359027,ministryofsolar.com,Belgium
BVBA Mirage,+32 2 4524329,https://www.mirage-energy.be,Belgium
MNtechnics bvba,+32 477 753962,https://www.mntechnics.be,Belgium
Monin Sebastien Elec,+32  83 330012,www.ms-elec.be,Belgium
Moors All Energy,+32 471 897025,www.moorsallenergy.be,Belgium
MortiTech,+32 474 667235,https://www.mortitech.be,Belgium
MR Solar,+32 56 900000,www.mrsolar.be,Belgium
MS Elec,+32 476 597425,www.mselec.be,Belgium
MSM Dakwerken,+32 488 800940,www.mselec.be,Belgium
MV Solar,+32 494 500899,mvsolar.be,Belgium
MVB Energy,+32 473 816461,www.mvb-energy.be,Belgium
MYT Toitures,+32 71 220368,www.toitures-photovoltaique.be,Belgium
Nadesco bvba,+32 477 251643,www.nadesco.be,Belgium
Naessens BVBA,+32 56 688695,www.naessens-constructie.be,Belgium
Naessens Wilfried en Zoon BVBA,+32 474 988255,https://naessenswilfriedbvba.be,Belgium
Natural Energy sprl,+32 495 620346,https://www.natural-energy.be,Belgium
Neuville Sprl,+32 65 885285,www.neuvillesprl.be,Belgium
Nicolas Sprl,+32 61 216612,www.nicolasgf.be,Belgium
Nieuw dak in 24 uur BVBA,+32 3 6460399,www.nieuwdakin24uur.be,Belgium
Noirfalise Sprl,+32 4 2640106,www.noirfalise-solarnrj.be,Belgium
Nova Solar,+32 47 3924812,https://novasolar.be,Belgium
NRG-TEC BV,+32 497 202060,https://nrg-tec.be,Belgium
NS Technics BVBA,+32 11 696508,nstechnics.be,Belgium
Naeyaert Solar bvba,+32 50 500550,www.nlab.be,Belgium
NV Berckmoes,+32 52 523810,https://nvberckmoes.be,Belgium
OK Solar,+32 477 223322,https://www.ok.solar,Belgium
Oliva Technics,+32 473 703000,https://www.oliva-technics.be,Belgium
Omniterm Wallonie SPRL,+32 69 232840,www.omnitermwallonie.be,Belgium
Opteco,+32 11 360436,opteco.be,Belgium
Optima Solution,+32 473 456823,www.optimasolution.be,Belgium
Optimus Yacht Technology,+32 473 678085,www.optimusyachttechnology.be,Belgium
Orka,+32 9 3242170,www.orka-power.com,Belgium
Ovelec Sprl,+32 4 3741284,www.ovelec.be,Belgium
Paul Technics,+32 479 836899,www.ovelec.be,Belgium
PAWK bvba,+32 4 71188323,dakwerkenvanderhulst.be,Belgium
Pannemans Davy Elektro Service b.v.b.a.,+32 89 440174,www.pdes.be,Belgium
Elekticiteitswerken Peeters Sam,+32 494 923316,www.pdes.be,Belgium
Pellens Yvo BV,+32 11 733567,www.pellensyvo.be,Belgium
PerPetum,+32 9 2457781,www.perpetum.be,Belgium
PH Dakwerken,+32 474 660453,www.phdakwerken.be,Belgium
Photovolta,+32 485 408844,www.photovolta-zonnepanelen.be,Belgium
Goeminne Pieter-Jan Electro Service bvba,+32 476 800520,www.pjgoeminne.be,Belgium
Plan Group,+32 498 151549,www.plangroup.be,Belgium
Planet-Eco,+32 800 62626,www.planet-eco.be,Belgium
PlanetPlus bvba,+32 471 600056,https://www.planetplus.be,Belgium
PLM Immobel Sprl,+32 498 540460,www.plm-immobel.be,Belgium
PMA Elektriciteit BV,+32 485 708516,https://www.pmaelektriciteit.be,Belgium
Poelaert,+32 2 3434413,https://www.poelaert-peterman.be,Belgium
,,,Belgium
,,,Belgium
,,,Belgium
,,,Belgium
,,,Belgium
,,,Belgium
,,,Belgium
,,,Belgium
,,,Belgium
,,,Belgium
,,,Belgium
,,,Belgium
,,,Belgium
,,,Belgium
,,,Belgium
,,,Belgium
,,,Belgium
,,,Belgium
,,,Belgium
,,,Belgium
,,,Belgium
,,,Belgium
,,,Belgium
,,,Belgium
,,,Belgium
,,,Belgium
,,,Belgium
,,,Belgium
,,,Belgium
,,,Belgium
,,,Belgium
,,,Belgium
,,,Belgium
,,,Belgium
,,,Belgium
,,,Belgium
,,,Belgium
,,,Belgium
,,,Belgium
,,,Belgium
,,,Belgium
,,,Belgium
,,,Belgium
,,,Belgium
,,,Belgium
,,,Belgium
,,,Belgium
,,,Belgium
,,,Belgium
,,,Belgium
,,,Belgium
,,,Belgium
,,,Belgium
,,,Belgium
,,,Belgium
,,,Belgium
,,,Belgium
,,,Belgium
,,,Belgium
,,,Belgium
,,,Belgium
,,,Belgium
,,,Belgium
,,,Belgium
,,,Belgium
,,,Belgium
,,,Belgium
,,,Belgium
,,,Belgium
,,,Belgium
,,,Belgium
,,,Belgium
,,,Belgium
,,,Belgium
,,,Belgium
,,,Belgium
,,,Belgium
,,,Belgium
,,,Belgium
,,,Belgium
